<?xml version="1.0"?>
<gpx xmlns="http://www.topografix.com/GPX/1/1" xmlns:xsi="http://www.w3.org/2001/XMLSchema-instance" version="1.1" creator="AllTrails.com" xsi:schemaLocation="http://www.topografix.com/GPX/1/1 http://www.topografix.com/GPX/1/1/gpx.xsd">
  <metadata>
    <name><![CDATA[Dry Creek Loop]]></name>
    <desc><![CDATA[]]></desc>
    <link href="http://www.alltrails.com">
      <text>AllTrails, LLC</text>
    </link>
    <bounds minlat="34.20189" minlon="-117.08791" maxlat="34.20679" maxlon="-117.08004"/>
  </metadata>
  <trk>
    <name><![CDATA[Dry Creek Loop]]></name>
    <src>AllTrails</src>
    <trkseg>
      <trkpt lat="34.20344" lon="-117.08786">
        <ele>1824.6</ele>
        <time>2026-03-25T17:50:27Z</time>
      </trkpt>
      <trkpt lat="34.20344" lon="-117.08785">
        <ele>1824.51</ele>
        <time>2026-03-25T17:50:29Z</time>
      </trkpt>
      <trkpt lat="34.20343" lon="-117.08783">
        <ele>1824.5</ele>
        <time>2026-03-25T17:50:32Z</time>
      </trkpt>
      <trkpt lat="34.20339" lon="-117.08781">
        <ele>1825.38</ele>
        <time>2026-03-25T17:50:37Z</time>
      </trkpt>
      <trkpt lat="34.20336" lon="-117.0878">
        <ele>1826.21</ele>
        <time>2026-03-25T17:50:41Z</time>
      </trkpt>
      <trkpt lat="34.20333" lon="-117.08779">
        <ele>1827.07</ele>
        <time>2026-03-25T17:50:45Z</time>
      </trkpt>
      <trkpt lat="34.2033" lon="-117.08776">
        <ele>1827.41</ele>
        <time>2026-03-25T17:50:50Z</time>
      </trkpt>
      <trkpt lat="34.20326" lon="-117.08774">
        <ele>1828.09</ele>
        <time>2026-03-25T17:50:54Z</time>
      </trkpt>
      <trkpt lat="34.20322" lon="-117.08773">
        <ele>1828.82</ele>
        <time>2026-03-25T17:50:57Z</time>
      </trkpt>
      <trkpt lat="34.20318" lon="-117.08772">
        <ele>1829.44</ele>
        <time>2026-03-25T17:51:00Z</time>
      </trkpt>
      <trkpt lat="34.20314" lon="-117.0877">
        <ele>1830.01</ele>
        <time>2026-03-25T17:51:04Z</time>
      </trkpt>
      <trkpt lat="34.20311" lon="-117.08767">
        <ele>1829.64</ele>
        <time>2026-03-25T17:51:09Z</time>
      </trkpt>
      <trkpt lat="34.20307" lon="-117.08765">
        <ele>1829.5</ele>
        <time>2026-03-25T17:51:17Z</time>
      </trkpt>
      <trkpt lat="34.20303" lon="-117.08763">
        <ele>1829.52</ele>
        <time>2026-03-25T17:51:28Z</time>
      </trkpt>
      <trkpt lat="34.203" lon="-117.08762">
        <ele>1829.47</ele>
        <time>2026-03-25T17:51:36Z</time>
      </trkpt>
      <trkpt lat="34.20296" lon="-117.08761">
        <ele>1829.4</ele>
        <time>2026-03-25T17:51:42Z</time>
      </trkpt>
      <trkpt lat="34.20292" lon="-117.08759">
        <ele>1829.41</ele>
        <time>2026-03-25T17:51:47Z</time>
      </trkpt>
      <trkpt lat="34.20288" lon="-117.08758">
        <ele>1829.62</ele>
        <time>2026-03-25T17:51:52Z</time>
      </trkpt>
      <trkpt lat="34.20284" lon="-117.08756">
        <ele>1829.62</ele>
        <time>2026-03-25T17:51:57Z</time>
      </trkpt>
      <trkpt lat="34.2028" lon="-117.08754">
        <ele>1829.62</ele>
        <time>2026-03-25T17:52:02Z</time>
      </trkpt>
      <trkpt lat="34.20276" lon="-117.08752">
        <ele>1829.58</ele>
        <time>2026-03-25T17:52:07Z</time>
      </trkpt>
      <trkpt lat="34.20271" lon="-117.08751">
        <ele>1829.87</ele>
        <time>2026-03-25T17:52:12Z</time>
      </trkpt>
      <trkpt lat="34.20267" lon="-117.08749">
        <ele>1829.8</ele>
        <time>2026-03-25T17:52:17Z</time>
      </trkpt>
      <trkpt lat="34.20263" lon="-117.08747">
        <ele>1829.55</ele>
        <time>2026-03-25T17:52:22Z</time>
      </trkpt>
      <trkpt lat="34.20259" lon="-117.08746">
        <ele>1829.6</ele>
        <time>2026-03-25T17:52:27Z</time>
      </trkpt>
      <trkpt lat="34.20255" lon="-117.08744">
        <ele>1829.81</ele>
        <time>2026-03-25T17:52:32Z</time>
      </trkpt>
      <trkpt lat="34.2025" lon="-117.08743">
        <ele>1830.24</ele>
        <time>2026-03-25T17:52:37Z</time>
      </trkpt>
      <trkpt lat="34.20246" lon="-117.08741">
        <ele>1830.46</ele>
        <time>2026-03-25T17:52:42Z</time>
      </trkpt>
      <trkpt lat="34.20243" lon="-117.08739">
        <ele>1830.38</ele>
        <time>2026-03-25T17:52:46Z</time>
      </trkpt>
      <trkpt lat="34.20239" lon="-117.08737">
        <ele>1830.38</ele>
        <time>2026-03-25T17:52:51Z</time>
      </trkpt>
      <trkpt lat="34.20236" lon="-117.08735">
        <ele>1830.27</ele>
        <time>2026-03-25T17:52:55Z</time>
      </trkpt>
      <trkpt lat="34.20233" lon="-117.08733">
        <ele>1830.16</ele>
        <time>2026-03-25T17:52:59Z</time>
      </trkpt>
      <trkpt lat="34.2023" lon="-117.08731">
        <ele>1830.22</ele>
        <time>2026-03-25T17:53:03Z</time>
      </trkpt>
      <trkpt lat="34.20228" lon="-117.08727">
        <ele>1829.78</ele>
        <time>2026-03-25T17:53:05Z</time>
      </trkpt>
      <trkpt lat="34.20226" lon="-117.08722">
        <ele>1829.15</ele>
        <time>2026-03-25T17:53:07Z</time>
      </trkpt>
      <trkpt lat="34.20225" lon="-117.08718">
        <ele>1828.62</ele>
        <time>2026-03-25T17:53:09Z</time>
      </trkpt>
      <trkpt lat="34.20223" lon="-117.08714">
        <ele>1828.13</ele>
        <time>2026-03-25T17:53:12Z</time>
      </trkpt>
      <trkpt lat="34.20221" lon="-117.0871">
        <ele>1828.09</ele>
        <time>2026-03-25T17:53:15Z</time>
      </trkpt>
      <trkpt lat="34.20218" lon="-117.08706">
        <ele>1828.11</ele>
        <time>2026-03-25T17:53:18Z</time>
      </trkpt>
      <trkpt lat="34.20218" lon="-117.08703">
        <ele>1828.0</ele>
        <time>2026-03-25T17:53:21Z</time>
      </trkpt>
      <trkpt lat="34.20221" lon="-117.08698">
        <ele>1828.0</ele>
        <time>2026-03-25T17:53:24Z</time>
      </trkpt>
      <trkpt lat="34.20222" lon="-117.08695">
        <ele>1828.0</ele>
        <time>2026-03-25T17:53:27Z</time>
      </trkpt>
      <trkpt lat="34.20223" lon="-117.08691">
        <ele>1828.74</ele>
        <time>2026-03-25T17:53:30Z</time>
      </trkpt>
      <trkpt lat="34.20223" lon="-117.08687">
        <ele>1829.61</ele>
        <time>2026-03-25T17:53:33Z</time>
      </trkpt>
      <trkpt lat="34.20223" lon="-117.08683">
        <ele>1830.47</ele>
        <time>2026-03-25T17:53:36Z</time>
      </trkpt>
      <trkpt lat="34.20223" lon="-117.08679">
        <ele>1831.34</ele>
        <time>2026-03-25T17:53:39Z</time>
      </trkpt>
      <trkpt lat="34.20224" lon="-117.08675">
        <ele>1832.28</ele>
        <time>2026-03-25T17:53:42Z</time>
      </trkpt>
      <trkpt lat="34.20226" lon="-117.08672">
        <ele>1833.1</ele>
        <time>2026-03-25T17:53:45Z</time>
      </trkpt>
      <trkpt lat="34.20228" lon="-117.08669">
        <ele>1833.78</ele>
        <time>2026-03-25T17:53:48Z</time>
      </trkpt>
      <trkpt lat="34.2023" lon="-117.08666">
        <ele>1834.38</ele>
        <time>2026-03-25T17:53:52Z</time>
      </trkpt>
      <trkpt lat="34.20232" lon="-117.08669">
        <ele>1833.5</ele>
        <time>2026-03-25T17:53:55Z</time>
      </trkpt>
      <trkpt lat="34.20234" lon="-117.08672">
        <ele>1832.85</ele>
        <time>2026-03-25T17:54:02Z</time>
      </trkpt>
      <trkpt lat="34.20237" lon="-117.0867">
        <ele>1833.28</ele>
        <time>2026-03-25T17:54:08Z</time>
      </trkpt>
      <trkpt lat="34.2024" lon="-117.0867">
        <ele>1833.28</ele>
        <time>2026-03-25T17:54:12Z</time>
      </trkpt>
      <trkpt lat="34.20243" lon="-117.08671">
        <ele>1833.44</ele>
        <time>2026-03-25T17:54:16Z</time>
      </trkpt>
      <trkpt lat="34.20246" lon="-117.08672">
        <ele>1833.66</ele>
        <time>2026-03-25T17:54:19Z</time>
      </trkpt>
      <trkpt lat="34.20251" lon="-117.08672">
        <ele>1834.55</ele>
        <time>2026-03-25T17:54:21Z</time>
      </trkpt>
      <trkpt lat="34.20254" lon="-117.08672">
        <ele>1835.38</ele>
        <time>2026-03-25T17:54:23Z</time>
      </trkpt>
      <trkpt lat="34.20257" lon="-117.08672">
        <ele>1836.22</ele>
        <time>2026-03-25T17:54:26Z</time>
      </trkpt>
      <trkpt lat="34.20261" lon="-117.08671">
        <ele>1837.53</ele>
        <time>2026-03-25T17:54:30Z</time>
      </trkpt>
      <trkpt lat="34.20264" lon="-117.08672">
        <ele>1838.17</ele>
        <time>2026-03-25T17:54:33Z</time>
      </trkpt>
      <trkpt lat="34.20267" lon="-117.08672">
        <ele>1839.0</ele>
        <time>2026-03-25T17:54:37Z</time>
      </trkpt>
      <trkpt lat="34.2027" lon="-117.08673">
        <ele>1839.75</ele>
        <time>2026-03-25T17:54:40Z</time>
      </trkpt>
      <trkpt lat="34.20274" lon="-117.08673">
        <ele>1840.9</ele>
        <time>2026-03-25T17:54:44Z</time>
      </trkpt>
      <trkpt lat="34.20277" lon="-117.08674">
        <ele>1841.77</ele>
        <time>2026-03-25T17:54:48Z</time>
      </trkpt>
      <trkpt lat="34.20281" lon="-117.08674">
        <ele>1842.7</ele>
        <time>2026-03-25T17:54:52Z</time>
      </trkpt>
      <trkpt lat="34.20284" lon="-117.08674">
        <ele>1843.34</ele>
        <time>2026-03-25T17:54:56Z</time>
      </trkpt>
      <trkpt lat="34.20288" lon="-117.08675">
        <ele>1844.01</ele>
        <time>2026-03-25T17:55:00Z</time>
      </trkpt>
      <trkpt lat="34.20292" lon="-117.08675">
        <ele>1844.05</ele>
        <time>2026-03-25T17:55:04Z</time>
      </trkpt>
      <trkpt lat="34.20296" lon="-117.08676">
        <ele>1843.99</ele>
        <time>2026-03-25T17:55:08Z</time>
      </trkpt>
      <trkpt lat="34.20299" lon="-117.08676">
        <ele>1844.28</ele>
        <time>2026-03-25T17:55:12Z</time>
      </trkpt>
      <trkpt lat="34.20303" lon="-117.08676">
        <ele>1844.72</ele>
        <time>2026-03-25T17:55:16Z</time>
      </trkpt>
      <trkpt lat="34.20307" lon="-117.08676">
        <ele>1844.99</ele>
        <time>2026-03-25T17:55:20Z</time>
      </trkpt>
      <trkpt lat="34.20311" lon="-117.08675">
        <ele>1845.0</ele>
        <time>2026-03-25T17:55:25Z</time>
      </trkpt>
      <trkpt lat="34.20314" lon="-117.08674">
        <ele>1845.0</ele>
        <time>2026-03-25T17:55:30Z</time>
      </trkpt>
      <trkpt lat="34.20317" lon="-117.0867">
        <ele>1845.0</ele>
        <time>2026-03-25T17:55:34Z</time>
      </trkpt>
      <trkpt lat="34.20318" lon="-117.08664">
        <ele>1845.29</ele>
        <time>2026-03-25T17:55:36Z</time>
      </trkpt>
      <trkpt lat="34.20319" lon="-117.0866">
        <ele>1845.72</ele>
        <time>2026-03-25T17:55:38Z</time>
      </trkpt>
      <trkpt lat="34.20321" lon="-117.08655">
        <ele>1846.0</ele>
        <time>2026-03-25T17:55:41Z</time>
      </trkpt>
      <trkpt lat="34.20322" lon="-117.08651">
        <ele>1846.0</ele>
        <time>2026-03-25T17:55:45Z</time>
      </trkpt>
      <trkpt lat="34.2032" lon="-117.08648">
        <ele>1846.0</ele>
        <time>2026-03-25T17:55:48Z</time>
      </trkpt>
      <trkpt lat="34.20318" lon="-117.08644">
        <ele>1846.0</ele>
        <time>2026-03-25T17:55:51Z</time>
      </trkpt>
      <trkpt lat="34.20317" lon="-117.0864">
        <ele>1846.0</ele>
        <time>2026-03-25T17:55:55Z</time>
      </trkpt>
      <trkpt lat="34.20315" lon="-117.08637">
        <ele>1846.0</ele>
        <time>2026-03-25T17:55:59Z</time>
      </trkpt>
      <trkpt lat="34.20313" lon="-117.08633">
        <ele>1846.12</ele>
        <time>2026-03-25T17:56:04Z</time>
      </trkpt>
      <trkpt lat="34.2031" lon="-117.08629">
        <ele>1846.52</ele>
        <time>2026-03-25T17:56:09Z</time>
      </trkpt>
      <trkpt lat="34.20307" lon="-117.08627">
        <ele>1846.84</ele>
        <time>2026-03-25T17:56:13Z</time>
      </trkpt>
      <trkpt lat="34.20304" lon="-117.08625">
        <ele>1847.08</ele>
        <time>2026-03-25T17:56:17Z</time>
      </trkpt>
      <trkpt lat="34.203" lon="-117.08623">
        <ele>1847.43</ele>
        <time>2026-03-25T17:56:21Z</time>
      </trkpt>
      <trkpt lat="34.20296" lon="-117.08621">
        <ele>1847.93</ele>
        <time>2026-03-25T17:56:25Z</time>
      </trkpt>
      <trkpt lat="34.20293" lon="-117.08618">
        <ele>1848.51</ele>
        <time>2026-03-25T17:56:30Z</time>
      </trkpt>
      <trkpt lat="34.2029" lon="-117.08615">
        <ele>1849.16</ele>
        <time>2026-03-25T17:56:40Z</time>
      </trkpt>
      <trkpt lat="34.20287" lon="-117.08612">
        <ele>1849.8</ele>
        <time>2026-03-25T17:56:48Z</time>
      </trkpt>
      <trkpt lat="34.20284" lon="-117.08609">
        <ele>1849.77</ele>
        <time>2026-03-25T17:56:54Z</time>
      </trkpt>
      <trkpt lat="34.20282" lon="-117.08606">
        <ele>1850.32</ele>
        <time>2026-03-25T17:56:59Z</time>
      </trkpt>
      <trkpt lat="34.20279" lon="-117.08603">
        <ele>1850.78</ele>
        <time>2026-03-25T17:57:04Z</time>
      </trkpt>
      <trkpt lat="34.20276" lon="-117.08599">
        <ele>1850.33</ele>
        <time>2026-03-25T17:57:09Z</time>
      </trkpt>
      <trkpt lat="34.20273" lon="-117.08596">
        <ele>1848.98</ele>
        <time>2026-03-25T17:57:14Z</time>
      </trkpt>
      <trkpt lat="34.20271" lon="-117.08593">
        <ele>1848.49</ele>
        <time>2026-03-25T17:57:18Z</time>
      </trkpt>
      <trkpt lat="34.20269" lon="-117.0859">
        <ele>1847.87</ele>
        <time>2026-03-25T17:57:22Z</time>
      </trkpt>
      <trkpt lat="34.20269" lon="-117.08586">
        <ele>1848.74</ele>
        <time>2026-03-25T17:57:26Z</time>
      </trkpt>
      <trkpt lat="34.2027" lon="-117.08582">
        <ele>1850.08</ele>
        <time>2026-03-25T17:57:28Z</time>
      </trkpt>
      <trkpt lat="34.20271" lon="-117.08578">
        <ele>1851.03</ele>
        <time>2026-03-25T17:57:31Z</time>
      </trkpt>
      <trkpt lat="34.20271" lon="-117.08573">
        <ele>1851.22</ele>
        <time>2026-03-25T17:57:34Z</time>
      </trkpt>
      <trkpt lat="34.20271" lon="-117.08569">
        <ele>1850.79</ele>
        <time>2026-03-25T17:57:37Z</time>
      </trkpt>
      <trkpt lat="34.20271" lon="-117.08564">
        <ele>1850.32</ele>
        <time>2026-03-25T17:57:41Z</time>
      </trkpt>
      <trkpt lat="34.20273" lon="-117.0856">
        <ele>1851.17</ele>
        <time>2026-03-25T17:57:45Z</time>
      </trkpt>
      <trkpt lat="34.20275" lon="-117.08556">
        <ele>1851.83</ele>
        <time>2026-03-25T17:57:49Z</time>
      </trkpt>
      <trkpt lat="34.20278" lon="-117.08553">
        <ele>1852.43</ele>
        <time>2026-03-25T17:57:53Z</time>
      </trkpt>
      <trkpt lat="34.20281" lon="-117.08556">
        <ele>1852.7</ele>
        <time>2026-03-25T17:57:57Z</time>
      </trkpt>
      <trkpt lat="34.20283" lon="-117.0856">
        <ele>1852.92</ele>
        <time>2026-03-25T17:58:00Z</time>
      </trkpt>
      <trkpt lat="34.20287" lon="-117.08562">
        <ele>1852.7</ele>
        <time>2026-03-25T17:58:04Z</time>
      </trkpt>
      <trkpt lat="34.20291" lon="-117.08563">
        <ele>1852.38</ele>
        <time>2026-03-25T17:58:09Z</time>
      </trkpt>
      <trkpt lat="34.20294" lon="-117.08561">
        <ele>1851.84</ele>
        <time>2026-03-25T17:58:13Z</time>
      </trkpt>
      <trkpt lat="34.20298" lon="-117.08559">
        <ele>1850.94</ele>
        <time>2026-03-25T17:58:18Z</time>
      </trkpt>
      <trkpt lat="34.203" lon="-117.08557">
        <ele>1850.29</ele>
        <time>2026-03-25T17:58:22Z</time>
      </trkpt>
      <trkpt lat="34.20303" lon="-117.08555">
        <ele>1849.55</ele>
        <time>2026-03-25T17:58:26Z</time>
      </trkpt>
      <trkpt lat="34.20307" lon="-117.08553">
        <ele>1848.53</ele>
        <time>2026-03-25T17:58:30Z</time>
      </trkpt>
      <trkpt lat="34.2031" lon="-117.08551">
        <ele>1847.56</ele>
        <time>2026-03-25T17:58:34Z</time>
      </trkpt>
      <trkpt lat="34.20313" lon="-117.08548">
        <ele>1846.59</ele>
        <time>2026-03-25T17:58:38Z</time>
      </trkpt>
      <trkpt lat="34.20316" lon="-117.08545">
        <ele>1845.6</ele>
        <time>2026-03-25T17:58:42Z</time>
      </trkpt>
      <trkpt lat="34.20319" lon="-117.08542">
        <ele>1844.43</ele>
        <time>2026-03-25T17:58:46Z</time>
      </trkpt>
      <trkpt lat="34.20322" lon="-117.08538">
        <ele>1842.98</ele>
        <time>2026-03-25T17:58:51Z</time>
      </trkpt>
      <trkpt lat="34.20325" lon="-117.08534">
        <ele>1841.57</ele>
        <time>2026-03-25T17:58:56Z</time>
      </trkpt>
      <trkpt lat="34.20327" lon="-117.0853">
        <ele>1840.5</ele>
        <time>2026-03-25T17:59:01Z</time>
      </trkpt>
      <trkpt lat="34.20329" lon="-117.08526">
        <ele>1839.15</ele>
        <time>2026-03-25T17:59:05Z</time>
      </trkpt>
      <trkpt lat="34.20329" lon="-117.08522">
        <ele>1838.72</ele>
        <time>2026-03-25T17:59:07Z</time>
      </trkpt>
      <trkpt lat="34.2033" lon="-117.08516">
        <ele>1837.53</ele>
        <time>2026-03-25T17:59:10Z</time>
      </trkpt>
      <trkpt lat="34.20328" lon="-117.08513">
        <ele>1838.28</ele>
        <time>2026-03-25T17:59:13Z</time>
      </trkpt>
      <trkpt lat="34.20325" lon="-117.08509">
        <ele>1839.5</ele>
        <time>2026-03-25T17:59:16Z</time>
      </trkpt>
      <trkpt lat="34.20323" lon="-117.08505">
        <ele>1840.87</ele>
        <time>2026-03-25T17:59:19Z</time>
      </trkpt>
      <trkpt lat="34.20323" lon="-117.08501">
        <ele>1840.92</ele>
        <time>2026-03-25T17:59:22Z</time>
      </trkpt>
      <trkpt lat="34.20325" lon="-117.08497">
        <ele>1840.15</ele>
        <time>2026-03-25T17:59:25Z</time>
      </trkpt>
      <trkpt lat="34.20326" lon="-117.08492">
        <ele>1840.69</ele>
        <time>2026-03-25T17:59:28Z</time>
      </trkpt>
      <trkpt lat="34.20327" lon="-117.08487">
        <ele>1841.91</ele>
        <time>2026-03-25T17:59:32Z</time>
      </trkpt>
      <trkpt lat="34.20328" lon="-117.08482">
        <ele>1843.26</ele>
        <time>2026-03-25T17:59:36Z</time>
      </trkpt>
      <trkpt lat="34.20329" lon="-117.08478">
        <ele>1843.94</ele>
        <time>2026-03-25T17:59:41Z</time>
      </trkpt>
      <trkpt lat="34.20331" lon="-117.08473">
        <ele>1844.26</ele>
        <time>2026-03-25T17:59:46Z</time>
      </trkpt>
      <trkpt lat="34.20333" lon="-117.08468">
        <ele>1843.69</ele>
        <time>2026-03-25T17:59:51Z</time>
      </trkpt>
      <trkpt lat="34.20334" lon="-117.08464">
        <ele>1843.45</ele>
        <time>2026-03-25T17:59:55Z</time>
      </trkpt>
      <trkpt lat="34.20336" lon="-117.0846">
        <ele>1842.59</ele>
        <time>2026-03-25T17:59:59Z</time>
      </trkpt>
      <trkpt lat="34.20338" lon="-117.08456">
        <ele>1841.73</ele>
        <time>2026-03-25T18:00:03Z</time>
      </trkpt>
      <trkpt lat="34.20339" lon="-117.08452">
        <ele>1841.51</ele>
        <time>2026-03-25T18:00:07Z</time>
      </trkpt>
      <trkpt lat="34.2034" lon="-117.08447">
        <ele>1841.4</ele>
        <time>2026-03-25T18:00:11Z</time>
      </trkpt>
      <trkpt lat="34.20342" lon="-117.08443">
        <ele>1840.38</ele>
        <time>2026-03-25T18:00:15Z</time>
      </trkpt>
      <trkpt lat="34.20343" lon="-117.08439">
        <ele>1839.79</ele>
        <time>2026-03-25T18:00:19Z</time>
      </trkpt>
      <trkpt lat="34.20344" lon="-117.08434">
        <ele>1839.52</ele>
        <time>2026-03-25T18:00:23Z</time>
      </trkpt>
      <trkpt lat="34.20346" lon="-117.0843">
        <ele>1839.09</ele>
        <time>2026-03-25T18:00:27Z</time>
      </trkpt>
      <trkpt lat="34.20347" lon="-117.08426">
        <ele>1839.09</ele>
        <time>2026-03-25T18:00:31Z</time>
      </trkpt>
      <trkpt lat="34.20351" lon="-117.08427">
        <ele>1837.25</ele>
        <time>2026-03-25T18:00:42Z</time>
      </trkpt>
      <trkpt lat="34.20353" lon="-117.08423">
        <ele>1837.11</ele>
        <time>2026-03-25T18:00:50Z</time>
      </trkpt>
      <trkpt lat="34.20355" lon="-117.08419">
        <ele>1837.32</ele>
        <time>2026-03-25T18:00:56Z</time>
      </trkpt>
      <trkpt lat="34.20356" lon="-117.08415">
        <ele>1837.91</ele>
        <time>2026-03-25T18:01:02Z</time>
      </trkpt>
      <trkpt lat="34.20358" lon="-117.0841">
        <ele>1838.78</ele>
        <time>2026-03-25T18:01:07Z</time>
      </trkpt>
      <trkpt lat="34.2036" lon="-117.08406">
        <ele>1839.42</ele>
        <time>2026-03-25T18:01:12Z</time>
      </trkpt>
      <trkpt lat="34.20362" lon="-117.08403">
        <ele>1839.86</ele>
        <time>2026-03-25T18:01:19Z</time>
      </trkpt>
      <trkpt lat="34.20366" lon="-117.08401">
        <ele>1839.86</ele>
        <time>2026-03-25T18:01:31Z</time>
      </trkpt>
      <trkpt lat="34.20374" lon="-117.084">
        <ele>1839.29</ele>
        <time>2026-03-25T18:02:09Z</time>
      </trkpt>
      <trkpt lat="34.20375" lon="-117.08392">
        <ele>1840.16</ele>
        <time>2026-03-25T18:03:56Z</time>
      </trkpt>
      <trkpt lat="34.20376" lon="-117.08385">
        <ele>1840.56</ele>
        <time>2026-03-25T18:03:58Z</time>
      </trkpt>
      <trkpt lat="34.20376" lon="-117.08378">
        <ele>1841.03</ele>
        <time>2026-03-25T18:04:00Z</time>
      </trkpt>
      <trkpt lat="34.20376" lon="-117.08372">
        <ele>1841.93</ele>
        <time>2026-03-25T18:04:06Z</time>
      </trkpt>
      <trkpt lat="34.20377" lon="-117.08367">
        <ele>1842.68</ele>
        <time>2026-03-25T18:04:14Z</time>
      </trkpt>
      <trkpt lat="34.20378" lon="-117.08362">
        <ele>1843.5</ele>
        <time>2026-03-25T18:04:20Z</time>
      </trkpt>
      <trkpt lat="34.20379" lon="-117.08357">
        <ele>1844.19</ele>
        <time>2026-03-25T18:04:25Z</time>
      </trkpt>
      <trkpt lat="34.2038" lon="-117.08353">
        <ele>1844.6</ele>
        <time>2026-03-25T18:04:31Z</time>
      </trkpt>
      <trkpt lat="34.20381" lon="-117.08357">
        <ele>1843.38</ele>
        <time>2026-03-25T18:04:36Z</time>
      </trkpt>
      <trkpt lat="34.20382" lon="-117.08362">
        <ele>1842.09</ele>
        <time>2026-03-25T18:04:40Z</time>
      </trkpt>
      <trkpt lat="34.20385" lon="-117.08359">
        <ele>1841.58</ele>
        <time>2026-03-25T18:04:45Z</time>
      </trkpt>
      <trkpt lat="34.20389" lon="-117.08358">
        <ele>1840.34</ele>
        <time>2026-03-25T18:04:48Z</time>
      </trkpt>
      <trkpt lat="34.20393" lon="-117.08355">
        <ele>1840.81</ele>
        <time>2026-03-25T18:05:32Z</time>
      </trkpt>
      <trkpt lat="34.20396" lon="-117.08353">
        <ele>1840.97</ele>
        <time>2026-03-25T18:05:44Z</time>
      </trkpt>
      <trkpt lat="34.204" lon="-117.08355">
        <ele>1841.33</ele>
        <time>2026-03-25T18:06:33Z</time>
      </trkpt>
      <trkpt lat="34.20405" lon="-117.08355">
        <ele>1842.23</ele>
        <time>2026-03-25T18:06:36Z</time>
      </trkpt>
      <trkpt lat="34.2041" lon="-117.08354">
        <ele>1843.05</ele>
        <time>2026-03-25T18:06:38Z</time>
      </trkpt>
      <trkpt lat="34.20414" lon="-117.08354">
        <ele>1843.48</ele>
        <time>2026-03-25T18:06:41Z</time>
      </trkpt>
      <trkpt lat="34.20418" lon="-117.08353">
        <ele>1844.0</ele>
        <time>2026-03-25T18:06:48Z</time>
      </trkpt>
      <trkpt lat="34.20423" lon="-117.08351">
        <ele>1844.87</ele>
        <time>2026-03-25T18:06:55Z</time>
      </trkpt>
      <trkpt lat="34.20425" lon="-117.08345">
        <ele>1846.38</ele>
        <time>2026-03-25T18:06:58Z</time>
      </trkpt>
      <trkpt lat="34.20426" lon="-117.08341">
        <ele>1847.36</ele>
        <time>2026-03-25T18:07:01Z</time>
      </trkpt>
      <trkpt lat="34.20429" lon="-117.08337">
        <ele>1848.87</ele>
        <time>2026-03-25T18:07:05Z</time>
      </trkpt>
      <trkpt lat="34.20433" lon="-117.08338">
        <ele>1849.52</ele>
        <time>2026-03-25T18:07:10Z</time>
      </trkpt>
      <trkpt lat="34.20437" lon="-117.08339">
        <ele>1850.17</ele>
        <time>2026-03-25T18:07:14Z</time>
      </trkpt>
      <trkpt lat="34.20441" lon="-117.08338">
        <ele>1851.25</ele>
        <time>2026-03-25T18:07:19Z</time>
      </trkpt>
      <trkpt lat="34.20444" lon="-117.08336">
        <ele>1852.33</ele>
        <time>2026-03-25T18:07:23Z</time>
      </trkpt>
      <trkpt lat="34.20448" lon="-117.08335">
        <ele>1853.02</ele>
        <time>2026-03-25T18:07:27Z</time>
      </trkpt>
      <trkpt lat="34.20452" lon="-117.08334">
        <ele>1853.67</ele>
        <time>2026-03-25T18:07:31Z</time>
      </trkpt>
      <trkpt lat="34.20456" lon="-117.08335">
        <ele>1853.68</ele>
        <time>2026-03-25T18:07:35Z</time>
      </trkpt>
      <trkpt lat="34.2046" lon="-117.08335">
        <ele>1853.76</ele>
        <time>2026-03-25T18:07:39Z</time>
      </trkpt>
      <trkpt lat="34.20464" lon="-117.08335">
        <ele>1853.82</ele>
        <time>2026-03-25T18:07:43Z</time>
      </trkpt>
      <trkpt lat="34.20468" lon="-117.08335">
        <ele>1853.82</ele>
        <time>2026-03-25T18:07:47Z</time>
      </trkpt>
      <trkpt lat="34.20472" lon="-117.08334">
        <ele>1853.93</ele>
        <time>2026-03-25T18:07:51Z</time>
      </trkpt>
      <trkpt lat="34.20475" lon="-117.08334">
        <ele>1853.91</ele>
        <time>2026-03-25T18:07:56Z</time>
      </trkpt>
      <trkpt lat="34.2048" lon="-117.08333">
        <ele>1854.07</ele>
        <time>2026-03-25T18:08:01Z</time>
      </trkpt>
      <trkpt lat="34.20483" lon="-117.08332">
        <ele>1854.26</ele>
        <time>2026-03-25T18:08:05Z</time>
      </trkpt>
      <trkpt lat="34.20486" lon="-117.08331">
        <ele>1854.38</ele>
        <time>2026-03-25T18:08:09Z</time>
      </trkpt>
      <trkpt lat="34.20489" lon="-117.08328">
        <ele>1854.68</ele>
        <time>2026-03-25T18:08:13Z</time>
      </trkpt>
      <trkpt lat="34.20491" lon="-117.08324">
        <ele>1855.02</ele>
        <time>2026-03-25T18:08:15Z</time>
      </trkpt>
      <trkpt lat="34.20492" lon="-117.0832">
        <ele>1855.82</ele>
        <time>2026-03-25T18:08:17Z</time>
      </trkpt>
      <trkpt lat="34.20496" lon="-117.08317">
        <ele>1856.09</ele>
        <time>2026-03-25T18:08:21Z</time>
      </trkpt>
      <trkpt lat="34.20499" lon="-117.08316">
        <ele>1855.97</ele>
        <time>2026-03-25T18:08:25Z</time>
      </trkpt>
      <trkpt lat="34.20502" lon="-117.08315">
        <ele>1855.76</ele>
        <time>2026-03-25T18:08:29Z</time>
      </trkpt>
      <trkpt lat="34.20506" lon="-117.08314">
        <ele>1855.56</ele>
        <time>2026-03-25T18:08:33Z</time>
      </trkpt>
      <trkpt lat="34.20508" lon="-117.08311">
        <ele>1856.02</ele>
        <time>2026-03-25T18:08:48Z</time>
      </trkpt>
      <trkpt lat="34.20511" lon="-117.0831">
        <ele>1855.66</ele>
        <time>2026-03-25T18:08:52Z</time>
      </trkpt>
      <trkpt lat="34.20513" lon="-117.08308">
        <ele>1855.66</ele>
        <time>2026-03-25T18:08:56Z</time>
      </trkpt>
      <trkpt lat="34.20517" lon="-117.08306">
        <ele>1855.23</ele>
        <time>2026-03-25T18:09:01Z</time>
      </trkpt>
      <trkpt lat="34.2052" lon="-117.08303">
        <ele>1855.51</ele>
        <time>2026-03-25T18:09:06Z</time>
      </trkpt>
      <trkpt lat="34.20523" lon="-117.083">
        <ele>1855.83</ele>
        <time>2026-03-25T18:09:11Z</time>
      </trkpt>
      <trkpt lat="34.20526" lon="-117.08298">
        <ele>1855.83</ele>
        <time>2026-03-25T18:09:15Z</time>
      </trkpt>
      <trkpt lat="34.20529" lon="-117.08295">
        <ele>1856.16</ele>
        <time>2026-03-25T18:09:19Z</time>
      </trkpt>
      <trkpt lat="34.20532" lon="-117.08293">
        <ele>1856.16</ele>
        <time>2026-03-25T18:09:23Z</time>
      </trkpt>
      <trkpt lat="34.20536" lon="-117.08292">
        <ele>1855.62</ele>
        <time>2026-03-25T18:09:27Z</time>
      </trkpt>
      <trkpt lat="34.20539" lon="-117.0829">
        <ele>1855.61</ele>
        <time>2026-03-25T18:09:31Z</time>
      </trkpt>
      <trkpt lat="34.20542" lon="-117.08289">
        <ele>1855.1</ele>
        <time>2026-03-25T18:09:36Z</time>
      </trkpt>
      <trkpt lat="34.20545" lon="-117.08287">
        <ele>1854.43</ele>
        <time>2026-03-25T18:09:41Z</time>
      </trkpt>
      <trkpt lat="34.20548" lon="-117.08285">
        <ele>1854.91</ele>
        <time>2026-03-25T18:09:47Z</time>
      </trkpt>
      <trkpt lat="34.20552" lon="-117.08283">
        <ele>1855.73</ele>
        <time>2026-03-25T18:09:54Z</time>
      </trkpt>
      <trkpt lat="34.20555" lon="-117.08281">
        <ele>1856.0</ele>
        <time>2026-03-25T18:10:00Z</time>
      </trkpt>
      <trkpt lat="34.20558" lon="-117.08279">
        <ele>1857.06</ele>
        <time>2026-03-25T18:10:06Z</time>
      </trkpt>
      <trkpt lat="34.20561" lon="-117.08278">
        <ele>1858.35</ele>
        <time>2026-03-25T18:10:11Z</time>
      </trkpt>
      <trkpt lat="34.20564" lon="-117.08276">
        <ele>1859.89</ele>
        <time>2026-03-25T18:10:16Z</time>
      </trkpt>
      <trkpt lat="34.20567" lon="-117.08275">
        <ele>1860.94</ele>
        <time>2026-03-25T18:10:21Z</time>
      </trkpt>
      <trkpt lat="34.2057" lon="-117.08274">
        <ele>1861.86</ele>
        <time>2026-03-25T18:10:26Z</time>
      </trkpt>
      <trkpt lat="34.20573" lon="-117.08272">
        <ele>1862.72</ele>
        <time>2026-03-25T18:10:31Z</time>
      </trkpt>
      <trkpt lat="34.20576" lon="-117.08271">
        <ele>1863.47</ele>
        <time>2026-03-25T18:10:36Z</time>
      </trkpt>
      <trkpt lat="34.20579" lon="-117.08269">
        <ele>1864.09</ele>
        <time>2026-03-25T18:10:42Z</time>
      </trkpt>
      <trkpt lat="34.20583" lon="-117.08268">
        <ele>1864.93</ele>
        <time>2026-03-25T18:10:49Z</time>
      </trkpt>
      <trkpt lat="34.20585" lon="-117.08272">
        <ele>1865.67</ele>
        <time>2026-03-25T18:10:52Z</time>
      </trkpt>
      <trkpt lat="34.20589" lon="-117.08268">
        <ele>1866.19</ele>
        <time>2026-03-25T18:11:36Z</time>
      </trkpt>
      <trkpt lat="34.20595" lon="-117.08268">
        <ele>1867.22</ele>
        <time>2026-03-25T18:11:44Z</time>
      </trkpt>
      <trkpt lat="34.20599" lon="-117.08266">
        <ele>1867.61</ele>
        <time>2026-03-25T18:11:50Z</time>
      </trkpt>
      <trkpt lat="34.20604" lon="-117.08264">
        <ele>1868.35</ele>
        <time>2026-03-25T18:11:56Z</time>
      </trkpt>
      <trkpt lat="34.20607" lon="-117.08261">
        <ele>1869.01</ele>
        <time>2026-03-25T18:12:02Z</time>
      </trkpt>
      <trkpt lat="34.2061" lon="-117.08259">
        <ele>1869.76</ele>
        <time>2026-03-25T18:12:07Z</time>
      </trkpt>
      <trkpt lat="34.20614" lon="-117.08256">
        <ele>1870.42</ele>
        <time>2026-03-25T18:12:12Z</time>
      </trkpt>
      <trkpt lat="34.20617" lon="-117.08254">
        <ele>1871.0</ele>
        <time>2026-03-25T18:12:16Z</time>
      </trkpt>
      <trkpt lat="34.20619" lon="-117.08249">
        <ele>1871.81</ele>
        <time>2026-03-25T18:12:19Z</time>
      </trkpt>
      <trkpt lat="34.20622" lon="-117.08247">
        <ele>1872.68</ele>
        <time>2026-03-25T18:12:21Z</time>
      </trkpt>
      <trkpt lat="34.20626" lon="-117.08245">
        <ele>1873.76</ele>
        <time>2026-03-25T18:12:23Z</time>
      </trkpt>
      <trkpt lat="34.2063" lon="-117.08243">
        <ele>1874.8</ele>
        <time>2026-03-25T18:12:26Z</time>
      </trkpt>
      <trkpt lat="34.20633" lon="-117.08242">
        <ele>1875.23</ele>
        <time>2026-03-25T18:12:29Z</time>
      </trkpt>
      <trkpt lat="34.20637" lon="-117.0824">
        <ele>1875.89</ele>
        <time>2026-03-25T18:12:33Z</time>
      </trkpt>
      <trkpt lat="34.20641" lon="-117.0824">
        <ele>1876.29</ele>
        <time>2026-03-25T18:12:40Z</time>
      </trkpt>
      <trkpt lat="34.20642" lon="-117.08244">
        <ele>1876.1</ele>
        <time>2026-03-25T18:13:05Z</time>
      </trkpt>
      <trkpt lat="34.20644" lon="-117.08248">
        <ele>1876.2</ele>
        <time>2026-03-25T18:13:15Z</time>
      </trkpt>
      <trkpt lat="34.20647" lon="-117.08252">
        <ele>1876.94</ele>
        <time>2026-03-25T18:13:28Z</time>
      </trkpt>
      <trkpt lat="34.2065" lon="-117.08255">
        <ele>1877.94</ele>
        <time>2026-03-25T18:13:37Z</time>
      </trkpt>
      <trkpt lat="34.20654" lon="-117.08251">
        <ele>1878.37</ele>
        <time>2026-03-25T18:13:45Z</time>
      </trkpt>
      <trkpt lat="34.20655" lon="-117.08244">
        <ele>1878.0</ele>
        <time>2026-03-25T18:13:48Z</time>
      </trkpt>
      <trkpt lat="34.20656" lon="-117.08239">
        <ele>1877.69</ele>
        <time>2026-03-25T18:13:51Z</time>
      </trkpt>
      <trkpt lat="34.20657" lon="-117.08233">
        <ele>1877.16</ele>
        <time>2026-03-25T18:13:55Z</time>
      </trkpt>
      <trkpt lat="34.20658" lon="-117.08228">
        <ele>1876.87</ele>
        <time>2026-03-25T18:13:59Z</time>
      </trkpt>
      <trkpt lat="34.20659" lon="-117.08222">
        <ele>1876.7</ele>
        <time>2026-03-25T18:14:06Z</time>
      </trkpt>
      <trkpt lat="34.2066" lon="-117.08217">
        <ele>1877.57</ele>
        <time>2026-03-25T18:14:12Z</time>
      </trkpt>
      <trkpt lat="34.20661" lon="-117.08212">
        <ele>1878.39</ele>
        <time>2026-03-25T18:14:19Z</time>
      </trkpt>
      <trkpt lat="34.20658" lon="-117.08208">
        <ele>1879.91</ele>
        <time>2026-03-25T18:14:24Z</time>
      </trkpt>
      <trkpt lat="34.20655" lon="-117.08205">
        <ele>1880.72</ele>
        <time>2026-03-25T18:14:28Z</time>
      </trkpt>
      <trkpt lat="34.20654" lon="-117.082">
        <ele>1881.4</ele>
        <time>2026-03-25T18:14:34Z</time>
      </trkpt>
      <trkpt lat="34.20654" lon="-117.08195">
        <ele>1881.94</ele>
        <time>2026-03-25T18:14:39Z</time>
      </trkpt>
      <trkpt lat="34.20654" lon="-117.08191">
        <ele>1882.74</ele>
        <time>2026-03-25T18:14:44Z</time>
      </trkpt>
      <trkpt lat="34.20655" lon="-117.08186">
        <ele>1883.82</ele>
        <time>2026-03-25T18:14:48Z</time>
      </trkpt>
      <trkpt lat="34.20656" lon="-117.08182">
        <ele>1884.98</ele>
        <time>2026-03-25T18:14:52Z</time>
      </trkpt>
      <trkpt lat="34.20657" lon="-117.08178">
        <ele>1886.29</ele>
        <time>2026-03-25T18:14:56Z</time>
      </trkpt>
      <trkpt lat="34.20659" lon="-117.08174">
        <ele>1886.9</ele>
        <time>2026-03-25T18:15:00Z</time>
      </trkpt>
      <trkpt lat="34.2066" lon="-117.0817">
        <ele>1887.44</ele>
        <time>2026-03-25T18:15:05Z</time>
      </trkpt>
      <trkpt lat="34.2066" lon="-117.08166">
        <ele>1888.32</ele>
        <time>2026-03-25T18:15:09Z</time>
      </trkpt>
      <trkpt lat="34.20661" lon="-117.08162">
        <ele>1889.04</ele>
        <time>2026-03-25T18:15:14Z</time>
      </trkpt>
      <trkpt lat="34.20661" lon="-117.08157">
        <ele>1890.29</ele>
        <time>2026-03-25T18:15:19Z</time>
      </trkpt>
      <trkpt lat="34.20661" lon="-117.08153">
        <ele>1890.88</ele>
        <time>2026-03-25T18:15:24Z</time>
      </trkpt>
      <trkpt lat="34.20659" lon="-117.08151">
        <ele>1891.47</ele>
        <time>2026-03-25T18:15:40Z</time>
      </trkpt>
      <trkpt lat="34.2066" lon="-117.08143">
        <ele>1891.88</ele>
        <time>2026-03-25T18:18:09Z</time>
      </trkpt>
      <trkpt lat="34.2066" lon="-117.08133">
        <ele>1892.18</ele>
        <time>2026-03-25T18:18:12Z</time>
      </trkpt>
      <trkpt lat="34.20661" lon="-117.08126">
        <ele>1892.54</ele>
        <time>2026-03-25T18:18:14Z</time>
      </trkpt>
      <trkpt lat="34.20661" lon="-117.08119">
        <ele>1892.69</ele>
        <time>2026-03-25T18:18:18Z</time>
      </trkpt>
      <trkpt lat="34.20661" lon="-117.08113">
        <ele>1892.29</ele>
        <time>2026-03-25T18:18:27Z</time>
      </trkpt>
      <trkpt lat="34.20665" lon="-117.08109">
        <ele>1893.23</ele>
        <time>2026-03-25T18:18:34Z</time>
      </trkpt>
      <trkpt lat="34.2067" lon="-117.08107">
        <ele>1894.24</ele>
        <time>2026-03-25T18:18:37Z</time>
      </trkpt>
      <trkpt lat="34.20672" lon="-117.08103">
        <ele>1894.71</ele>
        <time>2026-03-25T18:18:42Z</time>
      </trkpt>
      <trkpt lat="34.20674" lon="-117.081">
        <ele>1895.53</ele>
        <time>2026-03-25T18:18:47Z</time>
      </trkpt>
      <trkpt lat="34.20677" lon="-117.08097">
        <ele>1896.82</ele>
        <time>2026-03-25T18:18:53Z</time>
      </trkpt>
      <trkpt lat="34.20679" lon="-117.08095">
        <ele>1897.65</ele>
        <time>2026-03-25T18:19:00Z</time>
      </trkpt>
      <trkpt lat="34.20679" lon="-117.08091">
        <ele>1898.23</ele>
        <time>2026-03-25T18:19:06Z</time>
      </trkpt>
      <trkpt lat="34.20675" lon="-117.08088">
        <ele>1897.1</ele>
        <time>2026-03-25T18:19:10Z</time>
      </trkpt>
      <trkpt lat="34.20672" lon="-117.08085">
        <ele>1896.12</ele>
        <time>2026-03-25T18:19:15Z</time>
      </trkpt>
      <trkpt lat="34.20669" lon="-117.08081">
        <ele>1895.26</ele>
        <time>2026-03-25T18:19:21Z</time>
      </trkpt>
      <trkpt lat="34.20666" lon="-117.08077">
        <ele>1894.45</ele>
        <time>2026-03-25T18:19:27Z</time>
      </trkpt>
      <trkpt lat="34.20664" lon="-117.08072">
        <ele>1894.87</ele>
        <time>2026-03-25T18:19:33Z</time>
      </trkpt>
      <trkpt lat="34.20664" lon="-117.08067">
        <ele>1896.65</ele>
        <time>2026-03-25T18:19:39Z</time>
      </trkpt>
      <trkpt lat="34.20666" lon="-117.08063">
        <ele>1898.28</ele>
        <time>2026-03-25T18:19:45Z</time>
      </trkpt>
      <trkpt lat="34.20665" lon="-117.08057">
        <ele>1899.63</ele>
        <time>2026-03-25T18:19:53Z</time>
      </trkpt>
      <trkpt lat="34.20662" lon="-117.08053">
        <ele>1900.69</ele>
        <time>2026-03-25T18:20:01Z</time>
      </trkpt>
      <trkpt lat="34.20659" lon="-117.08049">
        <ele>1902.0</ele>
        <time>2026-03-25T18:20:09Z</time>
      </trkpt>
      <trkpt lat="34.20654" lon="-117.08045">
        <ele>1903.42</ele>
        <time>2026-03-25T18:20:18Z</time>
      </trkpt>
      <trkpt lat="34.2065" lon="-117.08042">
        <ele>1904.39</ele>
        <time>2026-03-25T18:20:26Z</time>
      </trkpt>
      <trkpt lat="34.20646" lon="-117.08039">
        <ele>1905.36</ele>
        <time>2026-03-25T18:20:33Z</time>
      </trkpt>
      <trkpt lat="34.20642" lon="-117.08035">
        <ele>1906.73</ele>
        <time>2026-03-25T18:20:40Z</time>
      </trkpt>
      <trkpt lat="34.20638" lon="-117.08031">
        <ele>1907.86</ele>
        <time>2026-03-25T18:20:48Z</time>
      </trkpt>
      <trkpt lat="34.20634" lon="-117.08028">
        <ele>1908.4</ele>
        <time>2026-03-25T18:20:55Z</time>
      </trkpt>
      <trkpt lat="34.2063" lon="-117.08025">
        <ele>1908.95</ele>
        <time>2026-03-25T18:21:02Z</time>
      </trkpt>
      <trkpt lat="34.20626" lon="-117.08021">
        <ele>1909.41</ele>
        <time>2026-03-25T18:21:09Z</time>
      </trkpt>
      <trkpt lat="34.20623" lon="-117.08018">
        <ele>1909.74</ele>
        <time>2026-03-25T18:21:15Z</time>
      </trkpt>
      <trkpt lat="34.20619" lon="-117.08014">
        <ele>1910.32</ele>
        <time>2026-03-25T18:21:22Z</time>
      </trkpt>
      <trkpt lat="34.20615" lon="-117.08011">
        <ele>1910.86</ele>
        <time>2026-03-25T18:21:28Z</time>
      </trkpt>
      <trkpt lat="34.2061" lon="-117.08008">
        <ele>1911.53</ele>
        <time>2026-03-25T18:21:35Z</time>
      </trkpt>
      <trkpt lat="34.20606" lon="-117.08009">
        <ele>1911.64</ele>
        <time>2026-03-25T18:21:43Z</time>
      </trkpt>
      <trkpt lat="34.20605" lon="-117.08014">
        <ele>1910.12</ele>
        <time>2026-03-25T18:21:45Z</time>
      </trkpt>
      <trkpt lat="34.20603" lon="-117.08018">
        <ele>1909.04</ele>
        <time>2026-03-25T18:21:48Z</time>
      </trkpt>
      <trkpt lat="34.20599" lon="-117.08021">
        <ele>1908.5</ele>
        <time>2026-03-25T18:21:55Z</time>
      </trkpt>
      <trkpt lat="34.20595" lon="-117.08023">
        <ele>1908.29</ele>
        <time>2026-03-25T18:22:02Z</time>
      </trkpt>
      <trkpt lat="34.20591" lon="-117.08025">
        <ele>1908.07</ele>
        <time>2026-03-25T18:22:09Z</time>
      </trkpt>
      <trkpt lat="34.20587" lon="-117.08027">
        <ele>1907.86</ele>
        <time>2026-03-25T18:22:14Z</time>
      </trkpt>
      <trkpt lat="34.20582" lon="-117.08027">
        <ele>1908.41</ele>
        <time>2026-03-25T18:22:16Z</time>
      </trkpt>
      <trkpt lat="34.20577" lon="-117.08027">
        <ele>1908.99</ele>
        <time>2026-03-25T18:22:18Z</time>
      </trkpt>
      <trkpt lat="34.20573" lon="-117.08027">
        <ele>1909.33</ele>
        <time>2026-03-25T18:22:21Z</time>
      </trkpt>
      <trkpt lat="34.2057" lon="-117.08028">
        <ele>1908.9</ele>
        <time>2026-03-25T18:22:26Z</time>
      </trkpt>
      <trkpt lat="34.20567" lon="-117.08029">
        <ele>1908.47</ele>
        <time>2026-03-25T18:22:31Z</time>
      </trkpt>
      <trkpt lat="34.20563" lon="-117.0803">
        <ele>1907.7</ele>
        <time>2026-03-25T18:22:35Z</time>
      </trkpt>
      <trkpt lat="34.20559" lon="-117.0803">
        <ele>1906.93</ele>
        <time>2026-03-25T18:22:39Z</time>
      </trkpt>
      <trkpt lat="34.20555" lon="-117.0803">
        <ele>1906.31</ele>
        <time>2026-03-25T18:22:43Z</time>
      </trkpt>
      <trkpt lat="34.20552" lon="-117.08027">
        <ele>1907.19</ele>
        <time>2026-03-25T18:22:46Z</time>
      </trkpt>
      <trkpt lat="34.2055" lon="-117.08023">
        <ele>1907.93</ele>
        <time>2026-03-25T18:22:49Z</time>
      </trkpt>
      <trkpt lat="34.20547" lon="-117.08022">
        <ele>1907.72</ele>
        <time>2026-03-25T18:22:53Z</time>
      </trkpt>
      <trkpt lat="34.20544" lon="-117.08023">
        <ele>1907.27</ele>
        <time>2026-03-25T18:22:57Z</time>
      </trkpt>
      <trkpt lat="34.20541" lon="-117.08026">
        <ele>1906.62</ele>
        <time>2026-03-25T18:23:01Z</time>
      </trkpt>
      <trkpt lat="34.20538" lon="-117.08029">
        <ele>1906.09</ele>
        <time>2026-03-25T18:23:05Z</time>
      </trkpt>
      <trkpt lat="34.20535" lon="-117.08032">
        <ele>1906.0</ele>
        <time>2026-03-25T18:23:09Z</time>
      </trkpt>
      <trkpt lat="34.20532" lon="-117.08033">
        <ele>1906.0</ele>
        <time>2026-03-25T18:23:13Z</time>
      </trkpt>
      <trkpt lat="34.20529" lon="-117.08036">
        <ele>1906.0</ele>
        <time>2026-03-25T18:23:18Z</time>
      </trkpt>
      <trkpt lat="34.20526" lon="-117.08039">
        <ele>1906.0</ele>
        <time>2026-03-25T18:23:23Z</time>
      </trkpt>
      <trkpt lat="34.20523" lon="-117.08042">
        <ele>1906.0</ele>
        <time>2026-03-25T18:23:28Z</time>
      </trkpt>
      <trkpt lat="34.2052" lon="-117.08044">
        <ele>1906.0</ele>
        <time>2026-03-25T18:23:32Z</time>
      </trkpt>
      <trkpt lat="34.20523" lon="-117.08048">
        <ele>1906.0</ele>
        <time>2026-03-25T18:23:42Z</time>
      </trkpt>
      <trkpt lat="34.20514" lon="-117.08055">
        <ele>1905.51</ele>
        <time>2026-03-25T18:25:05Z</time>
      </trkpt>
      <trkpt lat="34.20506" lon="-117.08057">
        <ele>1904.55</ele>
        <time>2026-03-25T18:25:18Z</time>
      </trkpt>
      <trkpt lat="34.205" lon="-117.08057">
        <ele>1904.0</ele>
        <time>2026-03-25T18:25:27Z</time>
      </trkpt>
      <trkpt lat="34.20492" lon="-117.08057">
        <ele>1903.87</ele>
        <time>2026-03-25T18:25:30Z</time>
      </trkpt>
      <trkpt lat="34.20483" lon="-117.08057">
        <ele>1903.71</ele>
        <time>2026-03-25T18:25:32Z</time>
      </trkpt>
      <trkpt lat="34.20476" lon="-117.08057">
        <ele>1902.6</ele>
        <time>2026-03-25T18:25:35Z</time>
      </trkpt>
      <trkpt lat="34.20471" lon="-117.08051">
        <ele>1902.79</ele>
        <time>2026-03-25T18:25:41Z</time>
      </trkpt>
      <trkpt lat="34.2047" lon="-117.08043">
        <ele>1903.69</ele>
        <time>2026-03-25T18:25:43Z</time>
      </trkpt>
      <trkpt lat="34.20469" lon="-117.08035">
        <ele>1904.0</ele>
        <time>2026-03-25T18:25:46Z</time>
      </trkpt>
      <trkpt lat="34.20467" lon="-117.0803">
        <ele>1904.0</ele>
        <time>2026-03-25T18:25:52Z</time>
      </trkpt>
      <trkpt lat="34.20464" lon="-117.08027">
        <ele>1903.99</ele>
        <time>2026-03-25T18:26:01Z</time>
      </trkpt>
      <trkpt lat="34.20459" lon="-117.08027">
        <ele>1903.57</ele>
        <time>2026-03-25T18:26:07Z</time>
      </trkpt>
      <trkpt lat="34.20455" lon="-117.08027">
        <ele>1903.14</ele>
        <time>2026-03-25T18:26:14Z</time>
      </trkpt>
      <trkpt lat="34.20452" lon="-117.08026">
        <ele>1902.82</ele>
        <time>2026-03-25T18:26:24Z</time>
      </trkpt>
      <trkpt lat="34.20455" lon="-117.08024">
        <ele>1903.14</ele>
        <time>2026-03-25T18:26:33Z</time>
      </trkpt>
      <trkpt lat="34.20452" lon="-117.0802">
        <ele>1902.82</ele>
        <time>2026-03-25T18:26:43Z</time>
      </trkpt>
      <trkpt lat="34.20447" lon="-117.08019">
        <ele>1902.28</ele>
        <time>2026-03-25T18:26:47Z</time>
      </trkpt>
      <trkpt lat="34.20444" lon="-117.08017">
        <ele>1901.54</ele>
        <time>2026-03-25T18:26:53Z</time>
      </trkpt>
      <trkpt lat="34.20441" lon="-117.08015">
        <ele>1900.41</ele>
        <time>2026-03-25T18:26:58Z</time>
      </trkpt>
      <trkpt lat="34.20438" lon="-117.08013">
        <ele>1899.55</ele>
        <time>2026-03-25T18:27:03Z</time>
      </trkpt>
      <trkpt lat="34.20434" lon="-117.08011">
        <ele>1898.64</ele>
        <time>2026-03-25T18:27:08Z</time>
      </trkpt>
      <trkpt lat="34.2043" lon="-117.08009">
        <ele>1897.28</ele>
        <time>2026-03-25T18:27:13Z</time>
      </trkpt>
      <trkpt lat="34.20427" lon="-117.08007">
        <ele>1896.08</ele>
        <time>2026-03-25T18:27:18Z</time>
      </trkpt>
      <trkpt lat="34.20423" lon="-117.08006">
        <ele>1895.13</ele>
        <time>2026-03-25T18:27:25Z</time>
      </trkpt>
      <trkpt lat="34.20419" lon="-117.08005">
        <ele>1894.39</ele>
        <time>2026-03-25T18:27:31Z</time>
      </trkpt>
      <trkpt lat="34.20415" lon="-117.08004">
        <ele>1893.72</ele>
        <time>2026-03-25T18:27:37Z</time>
      </trkpt>
      <trkpt lat="34.2041" lon="-117.08006">
        <ele>1893.03</ele>
        <time>2026-03-25T18:27:43Z</time>
      </trkpt>
      <trkpt lat="34.20408" lon="-117.08012">
        <ele>1893.08</ele>
        <time>2026-03-25T18:27:46Z</time>
      </trkpt>
      <trkpt lat="34.20406" lon="-117.08016">
        <ele>1892.7</ele>
        <time>2026-03-25T18:27:49Z</time>
      </trkpt>
      <trkpt lat="34.20404" lon="-117.0802">
        <ele>1892.26</ele>
        <time>2026-03-25T18:27:53Z</time>
      </trkpt>
      <trkpt lat="34.204" lon="-117.08023">
        <ele>1891.4</ele>
        <time>2026-03-25T18:27:58Z</time>
      </trkpt>
      <trkpt lat="34.20397" lon="-117.08027">
        <ele>1890.75</ele>
        <time>2026-03-25T18:28:02Z</time>
      </trkpt>
      <trkpt lat="34.20395" lon="-117.08031">
        <ele>1890.32</ele>
        <time>2026-03-25T18:28:05Z</time>
      </trkpt>
      <trkpt lat="34.20392" lon="-117.08034">
        <ele>1889.67</ele>
        <time>2026-03-25T18:28:09Z</time>
      </trkpt>
      <trkpt lat="34.20389" lon="-117.08037">
        <ele>1889.02</ele>
        <time>2026-03-25T18:28:14Z</time>
      </trkpt>
      <trkpt lat="34.20386" lon="-117.0804">
        <ele>1888.69</ele>
        <time>2026-03-25T18:28:20Z</time>
      </trkpt>
      <trkpt lat="34.20392" lon="-117.08042">
        <ele>1889.49</ele>
        <time>2026-03-25T18:28:33Z</time>
      </trkpt>
      <trkpt lat="34.20383" lon="-117.08046">
        <ele>1888.36</ele>
        <time>2026-03-25T18:28:52Z</time>
      </trkpt>
      <trkpt lat="34.20376" lon="-117.08049">
        <ele>1888.01</ele>
        <time>2026-03-25T18:29:02Z</time>
      </trkpt>
      <trkpt lat="34.20371" lon="-117.08054">
        <ele>1888.68</ele>
        <time>2026-03-25T18:29:10Z</time>
      </trkpt>
      <trkpt lat="34.20367" lon="-117.08057">
        <ele>1888.48</ele>
        <time>2026-03-25T18:29:17Z</time>
      </trkpt>
      <trkpt lat="34.20362" lon="-117.0806">
        <ele>1888.11</ele>
        <time>2026-03-25T18:29:23Z</time>
      </trkpt>
      <trkpt lat="34.20358" lon="-117.08063">
        <ele>1888.0</ele>
        <time>2026-03-25T18:29:28Z</time>
      </trkpt>
      <trkpt lat="34.20355" lon="-117.08066">
        <ele>1887.89</ele>
        <time>2026-03-25T18:29:33Z</time>
      </trkpt>
      <trkpt lat="34.20352" lon="-117.08068">
        <ele>1887.71</ele>
        <time>2026-03-25T18:29:38Z</time>
      </trkpt>
      <trkpt lat="34.20348" lon="-117.08071">
        <ele>1887.64</ele>
        <time>2026-03-25T18:29:43Z</time>
      </trkpt>
      <trkpt lat="34.20345" lon="-117.08074">
        <ele>1887.51</ele>
        <time>2026-03-25T18:29:48Z</time>
      </trkpt>
      <trkpt lat="34.20342" lon="-117.08078">
        <ele>1887.3</ele>
        <time>2026-03-25T18:29:54Z</time>
      </trkpt>
      <trkpt lat="34.2034" lon="-117.08081">
        <ele>1887.19</ele>
        <time>2026-03-25T18:30:00Z</time>
      </trkpt>
      <trkpt lat="34.20337" lon="-117.08085">
        <ele>1887.04</ele>
        <time>2026-03-25T18:30:08Z</time>
      </trkpt>
      <trkpt lat="34.20334" lon="-117.08088">
        <ele>1886.68</ele>
        <time>2026-03-25T18:30:16Z</time>
      </trkpt>
      <trkpt lat="34.20331" lon="-117.0809">
        <ele>1886.22</ele>
        <time>2026-03-25T18:30:20Z</time>
      </trkpt>
      <trkpt lat="34.20327" lon="-117.08093">
        <ele>1885.65</ele>
        <time>2026-03-25T18:30:25Z</time>
      </trkpt>
      <trkpt lat="34.20324" lon="-117.08096">
        <ele>1884.98</ele>
        <time>2026-03-25T18:30:31Z</time>
      </trkpt>
      <trkpt lat="34.20321" lon="-117.08098">
        <ele>1884.34</ele>
        <time>2026-03-25T18:30:36Z</time>
      </trkpt>
      <trkpt lat="34.20321" lon="-117.08103">
        <ele>1884.21</ele>
        <time>2026-03-25T18:30:44Z</time>
      </trkpt>
      <trkpt lat="34.20325" lon="-117.08105">
        <ele>1884.96</ele>
        <time>2026-03-25T18:30:47Z</time>
      </trkpt>
      <trkpt lat="34.20328" lon="-117.08108">
        <ele>1885.61</ele>
        <time>2026-03-25T18:30:53Z</time>
      </trkpt>
      <trkpt lat="34.20325" lon="-117.08103">
        <ele>1885.18</ele>
        <time>2026-03-25T18:31:10Z</time>
      </trkpt>
      <trkpt lat="34.20318" lon="-117.08106">
        <ele>1883.24</ele>
        <time>2026-03-25T18:31:29Z</time>
      </trkpt>
      <trkpt lat="34.20313" lon="-117.0811">
        <ele>1881.92</ele>
        <time>2026-03-25T18:31:37Z</time>
      </trkpt>
      <trkpt lat="34.20308" lon="-117.08113">
        <ele>1881.26</ele>
        <time>2026-03-25T18:31:46Z</time>
      </trkpt>
      <trkpt lat="34.20303" lon="-117.08114">
        <ele>1880.72</ele>
        <time>2026-03-25T18:31:53Z</time>
      </trkpt>
      <trkpt lat="34.20299" lon="-117.08115">
        <ele>1880.29</ele>
        <time>2026-03-25T18:31:59Z</time>
      </trkpt>
      <trkpt lat="34.20294" lon="-117.08115">
        <ele>1879.75</ele>
        <time>2026-03-25T18:32:03Z</time>
      </trkpt>
      <trkpt lat="34.2029" lon="-117.08115">
        <ele>1879.32</ele>
        <time>2026-03-25T18:32:05Z</time>
      </trkpt>
      <trkpt lat="34.20285" lon="-117.08115">
        <ele>1878.65</ele>
        <time>2026-03-25T18:32:08Z</time>
      </trkpt>
      <trkpt lat="34.20281" lon="-117.08115">
        <ele>1877.97</ele>
        <time>2026-03-25T18:32:12Z</time>
      </trkpt>
      <trkpt lat="34.20277" lon="-117.08115">
        <ele>1877.34</ele>
        <time>2026-03-25T18:32:16Z</time>
      </trkpt>
      <trkpt lat="34.20273" lon="-117.08115">
        <ele>1876.9</ele>
        <time>2026-03-25T18:32:20Z</time>
      </trkpt>
      <trkpt lat="34.20269" lon="-117.08115">
        <ele>1876.47</ele>
        <time>2026-03-25T18:32:25Z</time>
      </trkpt>
      <trkpt lat="34.20266" lon="-117.08116">
        <ele>1876.13</ele>
        <time>2026-03-25T18:32:30Z</time>
      </trkpt>
      <trkpt lat="34.20262" lon="-117.08118">
        <ele>1875.86</ele>
        <time>2026-03-25T18:32:36Z</time>
      </trkpt>
      <trkpt lat="34.20266" lon="-117.08121">
        <ele>1876.86</ele>
        <time>2026-03-25T18:32:46Z</time>
      </trkpt>
      <trkpt lat="34.20262" lon="-117.08121">
        <ele>1876.43</ele>
        <time>2026-03-25T18:32:58Z</time>
      </trkpt>
      <trkpt lat="34.20258" lon="-117.08121">
        <ele>1876.0</ele>
        <time>2026-03-25T18:33:02Z</time>
      </trkpt>
      <trkpt lat="34.20254" lon="-117.08122">
        <ele>1875.78</ele>
        <time>2026-03-25T18:33:06Z</time>
      </trkpt>
      <trkpt lat="34.20249" lon="-117.08122">
        <ele>1875.05</ele>
        <time>2026-03-25T18:33:10Z</time>
      </trkpt>
      <trkpt lat="34.20245" lon="-117.08123">
        <ele>1874.1</ele>
        <time>2026-03-25T18:33:14Z</time>
      </trkpt>
      <trkpt lat="34.20242" lon="-117.08124">
        <ele>1873.53</ele>
        <time>2026-03-25T18:33:18Z</time>
      </trkpt>
      <trkpt lat="34.20237" lon="-117.08125">
        <ele>1872.69</ele>
        <time>2026-03-25T18:33:22Z</time>
      </trkpt>
      <trkpt lat="34.20233" lon="-117.08129">
        <ele>1873.12</ele>
        <time>2026-03-25T18:33:26Z</time>
      </trkpt>
      <trkpt lat="34.20232" lon="-117.08134">
        <ele>1874.53</ele>
        <time>2026-03-25T18:33:28Z</time>
      </trkpt>
      <trkpt lat="34.2023" lon="-117.08139">
        <ele>1875.7</ele>
        <time>2026-03-25T18:33:30Z</time>
      </trkpt>
      <trkpt lat="34.20228" lon="-117.08144">
        <ele>1876.14</ele>
        <time>2026-03-25T18:33:33Z</time>
      </trkpt>
      <trkpt lat="34.20225" lon="-117.08148">
        <ele>1875.88</ele>
        <time>2026-03-25T18:33:37Z</time>
      </trkpt>
      <trkpt lat="34.20221" lon="-117.0815">
        <ele>1874.83</ele>
        <time>2026-03-25T18:33:42Z</time>
      </trkpt>
      <trkpt lat="34.20218" lon="-117.08153">
        <ele>1874.39</ele>
        <time>2026-03-25T18:33:47Z</time>
      </trkpt>
      <trkpt lat="34.20215" lon="-117.08155">
        <ele>1873.98</ele>
        <time>2026-03-25T18:33:52Z</time>
      </trkpt>
      <trkpt lat="34.20214" lon="-117.08159">
        <ele>1874.24</ele>
        <time>2026-03-25T18:33:58Z</time>
      </trkpt>
      <trkpt lat="34.20215" lon="-117.08163">
        <ele>1874.57</ele>
        <time>2026-03-25T18:34:02Z</time>
      </trkpt>
      <trkpt lat="34.20215" lon="-117.08167">
        <ele>1874.69</ele>
        <time>2026-03-25T18:34:06Z</time>
      </trkpt>
      <trkpt lat="34.20216" lon="-117.08172">
        <ele>1875.37</ele>
        <time>2026-03-25T18:34:10Z</time>
      </trkpt>
      <trkpt lat="34.20216" lon="-117.08176">
        <ele>1875.65</ele>
        <time>2026-03-25T18:34:14Z</time>
      </trkpt>
      <trkpt lat="34.20217" lon="-117.0818">
        <ele>1875.68</ele>
        <time>2026-03-25T18:34:20Z</time>
      </trkpt>
      <trkpt lat="34.2022" lon="-117.08187">
        <ele>1876.0</ele>
        <time>2026-03-25T18:35:59Z</time>
      </trkpt>
      <trkpt lat="34.2022" lon="-117.08194">
        <ele>1876.94</ele>
        <time>2026-03-25T18:36:21Z</time>
      </trkpt>
      <trkpt lat="34.20219" lon="-117.082">
        <ele>1877.6</ele>
        <time>2026-03-25T18:36:32Z</time>
      </trkpt>
      <trkpt lat="34.20219" lon="-117.08205">
        <ele>1878.05</ele>
        <time>2026-03-25T18:36:43Z</time>
      </trkpt>
      <trkpt lat="34.20221" lon="-117.0821">
        <ele>1878.09</ele>
        <time>2026-03-25T18:36:47Z</time>
      </trkpt>
      <trkpt lat="34.20224" lon="-117.08216">
        <ele>1877.55</ele>
        <time>2026-03-25T18:36:49Z</time>
      </trkpt>
      <trkpt lat="34.20226" lon="-117.0822">
        <ele>1876.87</ele>
        <time>2026-03-25T18:36:51Z</time>
      </trkpt>
      <trkpt lat="34.20228" lon="-117.08224">
        <ele>1876.01</ele>
        <time>2026-03-25T18:36:54Z</time>
      </trkpt>
      <trkpt lat="34.20232" lon="-117.08227">
        <ele>1874.37</ele>
        <time>2026-03-25T18:36:59Z</time>
      </trkpt>
      <trkpt lat="34.20234" lon="-117.0823">
        <ele>1873.62</ele>
        <time>2026-03-25T18:37:04Z</time>
      </trkpt>
      <trkpt lat="34.20235" lon="-117.08235">
        <ele>1872.72</ele>
        <time>2026-03-25T18:37:09Z</time>
      </trkpt>
      <trkpt lat="34.20237" lon="-117.0824">
        <ele>1871.34</ele>
        <time>2026-03-25T18:37:14Z</time>
      </trkpt>
      <trkpt lat="34.20235" lon="-117.08243">
        <ele>1871.46</ele>
        <time>2026-03-25T18:37:18Z</time>
      </trkpt>
      <trkpt lat="34.20232" lon="-117.08247">
        <ele>1871.52</ele>
        <time>2026-03-25T18:37:22Z</time>
      </trkpt>
      <trkpt lat="34.20229" lon="-117.0825">
        <ele>1872.07</ele>
        <time>2026-03-25T18:37:26Z</time>
      </trkpt>
      <trkpt lat="34.20228" lon="-117.08254">
        <ele>1871.64</ele>
        <time>2026-03-25T18:37:31Z</time>
      </trkpt>
      <trkpt lat="34.20227" lon="-117.08259">
        <ele>1870.99</ele>
        <time>2026-03-25T18:37:37Z</time>
      </trkpt>
      <trkpt lat="34.20226" lon="-117.08264">
        <ele>1870.04</ele>
        <time>2026-03-25T18:37:42Z</time>
      </trkpt>
      <trkpt lat="34.20226" lon="-117.08269">
        <ele>1868.69</ele>
        <time>2026-03-25T18:37:47Z</time>
      </trkpt>
      <trkpt lat="34.20227" lon="-117.08275">
        <ele>1867.41</ele>
        <time>2026-03-25T18:37:52Z</time>
      </trkpt>
      <trkpt lat="34.20227" lon="-117.0828">
        <ele>1866.74</ele>
        <time>2026-03-25T18:37:56Z</time>
      </trkpt>
      <trkpt lat="34.20228" lon="-117.08284">
        <ele>1866.25</ele>
        <time>2026-03-25T18:38:00Z</time>
      </trkpt>
      <trkpt lat="34.20229" lon="-117.08288">
        <ele>1865.92</ele>
        <time>2026-03-25T18:38:05Z</time>
      </trkpt>
      <trkpt lat="34.2023" lon="-117.08292">
        <ele>1865.55</ele>
        <time>2026-03-25T18:38:09Z</time>
      </trkpt>
      <trkpt lat="34.20231" lon="-117.08296">
        <ele>1865.08</ele>
        <time>2026-03-25T18:38:13Z</time>
      </trkpt>
      <trkpt lat="34.20233" lon="-117.083">
        <ele>1864.6</ele>
        <time>2026-03-25T18:38:19Z</time>
      </trkpt>
      <trkpt lat="34.20237" lon="-117.083">
        <ele>1864.6</ele>
        <time>2026-03-25T18:38:29Z</time>
      </trkpt>
      <trkpt lat="34.20238" lon="-117.08304">
        <ele>1864.17</ele>
        <time>2026-03-25T18:38:35Z</time>
      </trkpt>
      <trkpt lat="34.20238" lon="-117.08309">
        <ele>1863.89</ele>
        <time>2026-03-25T18:38:40Z</time>
      </trkpt>
      <trkpt lat="34.20239" lon="-117.08313">
        <ele>1863.85</ele>
        <time>2026-03-25T18:38:45Z</time>
      </trkpt>
      <trkpt lat="34.2024" lon="-117.08317">
        <ele>1863.92</ele>
        <time>2026-03-25T18:38:50Z</time>
      </trkpt>
      <trkpt lat="34.2024" lon="-117.08322">
        <ele>1863.92</ele>
        <time>2026-03-25T18:38:55Z</time>
      </trkpt>
      <trkpt lat="34.20241" lon="-117.08326">
        <ele>1864.03</ele>
        <time>2026-03-25T18:38:59Z</time>
      </trkpt>
      <trkpt lat="34.20241" lon="-117.0833">
        <ele>1864.05</ele>
        <time>2026-03-25T18:39:03Z</time>
      </trkpt>
      <trkpt lat="34.20242" lon="-117.08334">
        <ele>1864.27</ele>
        <time>2026-03-25T18:39:07Z</time>
      </trkpt>
      <trkpt lat="34.20242" lon="-117.08337">
        <ele>1864.27</ele>
        <time>2026-03-25T18:39:11Z</time>
      </trkpt>
      <trkpt lat="34.20243" lon="-117.08341">
        <ele>1864.49</ele>
        <time>2026-03-25T18:39:15Z</time>
      </trkpt>
      <trkpt lat="34.20244" lon="-117.08345">
        <ele>1864.44</ele>
        <time>2026-03-25T18:39:19Z</time>
      </trkpt>
      <trkpt lat="34.20244" lon="-117.08349">
        <ele>1864.01</ele>
        <time>2026-03-25T18:39:23Z</time>
      </trkpt>
      <trkpt lat="34.20245" lon="-117.08352">
        <ele>1863.92</ele>
        <time>2026-03-25T18:39:27Z</time>
      </trkpt>
      <trkpt lat="34.20245" lon="-117.08356">
        <ele>1863.92</ele>
        <time>2026-03-25T18:39:31Z</time>
      </trkpt>
      <trkpt lat="34.20246" lon="-117.0836">
        <ele>1864.14</ele>
        <time>2026-03-25T18:39:35Z</time>
      </trkpt>
      <trkpt lat="34.20246" lon="-117.08364">
        <ele>1863.82</ele>
        <time>2026-03-25T18:39:39Z</time>
      </trkpt>
      <trkpt lat="34.20247" lon="-117.08368">
        <ele>1863.61</ele>
        <time>2026-03-25T18:39:43Z</time>
      </trkpt>
      <trkpt lat="34.20247" lon="-117.08372">
        <ele>1863.06</ele>
        <time>2026-03-25T18:39:47Z</time>
      </trkpt>
      <trkpt lat="34.20248" lon="-117.08376">
        <ele>1862.48</ele>
        <time>2026-03-25T18:39:51Z</time>
      </trkpt>
      <trkpt lat="34.20249" lon="-117.08379">
        <ele>1862.02</ele>
        <time>2026-03-25T18:39:55Z</time>
      </trkpt>
      <trkpt lat="34.20249" lon="-117.08383">
        <ele>1861.53</ele>
        <time>2026-03-25T18:39:59Z</time>
      </trkpt>
      <trkpt lat="34.2025" lon="-117.08387">
        <ele>1861.2</ele>
        <time>2026-03-25T18:40:03Z</time>
      </trkpt>
      <trkpt lat="34.2025" lon="-117.0839">
        <ele>1860.76</ele>
        <time>2026-03-25T18:40:07Z</time>
      </trkpt>
      <trkpt lat="34.20251" lon="-117.08394">
        <ele>1860.0</ele>
        <time>2026-03-25T18:40:11Z</time>
      </trkpt>
      <trkpt lat="34.20251" lon="-117.08398">
        <ele>1859.14</ele>
        <time>2026-03-25T18:40:16Z</time>
      </trkpt>
      <trkpt lat="34.20252" lon="-117.08402">
        <ele>1858.8</ele>
        <time>2026-03-25T18:40:21Z</time>
      </trkpt>
      <trkpt lat="34.20253" lon="-117.08407">
        <ele>1858.37</ele>
        <time>2026-03-25T18:40:26Z</time>
      </trkpt>
      <trkpt lat="34.20253" lon="-117.08411">
        <ele>1857.81</ele>
        <time>2026-03-25T18:40:32Z</time>
      </trkpt>
      <trkpt lat="34.20253" lon="-117.08416">
        <ele>1857.1</ele>
        <time>2026-03-25T18:40:38Z</time>
      </trkpt>
      <trkpt lat="34.20254" lon="-117.0842">
        <ele>1856.28</ele>
        <time>2026-03-25T18:40:44Z</time>
      </trkpt>
      <trkpt lat="34.20253" lon="-117.08425">
        <ele>1855.2</ele>
        <time>2026-03-25T18:40:50Z</time>
      </trkpt>
      <trkpt lat="34.20249" lon="-117.08428">
        <ele>1854.88</ele>
        <time>2026-03-25T18:40:54Z</time>
      </trkpt>
      <trkpt lat="34.20247" lon="-117.08432">
        <ele>1854.67</ele>
        <time>2026-03-25T18:40:58Z</time>
      </trkpt>
      <trkpt lat="34.20245" lon="-117.08435">
        <ele>1854.56</ele>
        <time>2026-03-25T18:41:02Z</time>
      </trkpt>
      <trkpt lat="34.20243" lon="-117.08439">
        <ele>1854.34</ele>
        <time>2026-03-25T18:41:06Z</time>
      </trkpt>
      <trkpt lat="34.20241" lon="-117.08443">
        <ele>1854.13</ele>
        <time>2026-03-25T18:41:10Z</time>
      </trkpt>
      <trkpt lat="34.20238" lon="-117.08447">
        <ele>1853.72</ele>
        <time>2026-03-25T18:41:14Z</time>
      </trkpt>
      <trkpt lat="34.20234" lon="-117.0845">
        <ele>1853.4</ele>
        <time>2026-03-25T18:41:18Z</time>
      </trkpt>
      <trkpt lat="34.20231" lon="-117.08455">
        <ele>1852.8</ele>
        <time>2026-03-25T18:41:23Z</time>
      </trkpt>
      <trkpt lat="34.20229" lon="-117.08459">
        <ele>1852.01</ele>
        <time>2026-03-25T18:41:29Z</time>
      </trkpt>
      <trkpt lat="34.20225" lon="-117.08457">
        <ele>1851.69</ele>
        <time>2026-03-25T18:41:37Z</time>
      </trkpt>
      <trkpt lat="34.20222" lon="-117.08458">
        <ele>1850.96</ele>
        <time>2026-03-25T18:41:44Z</time>
      </trkpt>
      <trkpt lat="34.20218" lon="-117.08464">
        <ele>1848.12</ele>
        <time>2026-03-25T18:41:51Z</time>
      </trkpt>
      <trkpt lat="34.20216" lon="-117.08468">
        <ele>1847.13</ele>
        <time>2026-03-25T18:41:56Z</time>
      </trkpt>
      <trkpt lat="34.20215" lon="-117.08474">
        <ele>1846.77</ele>
        <time>2026-03-25T18:42:02Z</time>
      </trkpt>
      <trkpt lat="34.20215" lon="-117.08479">
        <ele>1847.07</ele>
        <time>2026-03-25T18:42:08Z</time>
      </trkpt>
      <trkpt lat="34.20218" lon="-117.08482">
        <ele>1847.6</ele>
        <time>2026-03-25T18:42:11Z</time>
      </trkpt>
      <trkpt lat="34.20219" lon="-117.08486">
        <ele>1848.14</ele>
        <time>2026-03-25T18:42:15Z</time>
      </trkpt>
      <trkpt lat="34.20217" lon="-117.0849">
        <ele>1848.36</ele>
        <time>2026-03-25T18:42:19Z</time>
      </trkpt>
      <trkpt lat="34.20216" lon="-117.08493">
        <ele>1849.14</ele>
        <time>2026-03-25T18:42:25Z</time>
      </trkpt>
      <trkpt lat="34.20215" lon="-117.08497">
        <ele>1850.63</ele>
        <time>2026-03-25T18:42:30Z</time>
      </trkpt>
      <trkpt lat="34.20214" lon="-117.08502">
        <ele>1852.49</ele>
        <time>2026-03-25T18:42:35Z</time>
      </trkpt>
      <trkpt lat="34.20213" lon="-117.08506">
        <ele>1853.93</ele>
        <time>2026-03-25T18:42:40Z</time>
      </trkpt>
      <trkpt lat="34.20213" lon="-117.0851">
        <ele>1854.99</ele>
        <time>2026-03-25T18:42:46Z</time>
      </trkpt>
      <trkpt lat="34.2021" lon="-117.08508">
        <ele>1854.5</ele>
        <time>2026-03-25T18:42:56Z</time>
      </trkpt>
      <trkpt lat="34.20209" lon="-117.08511">
        <ele>1855.08</ele>
        <time>2026-03-25T18:43:01Z</time>
      </trkpt>
      <trkpt lat="34.20209" lon="-117.08515">
        <ele>1855.27</ele>
        <time>2026-03-25T18:43:05Z</time>
      </trkpt>
      <trkpt lat="34.20208" lon="-117.08518">
        <ele>1855.51</ele>
        <time>2026-03-25T18:43:09Z</time>
      </trkpt>
      <trkpt lat="34.20207" lon="-117.08522">
        <ele>1855.64</ele>
        <time>2026-03-25T18:43:14Z</time>
      </trkpt>
      <trkpt lat="34.20206" lon="-117.08525">
        <ele>1855.75</ele>
        <time>2026-03-25T18:43:18Z</time>
      </trkpt>
      <trkpt lat="34.20205" lon="-117.08529">
        <ele>1855.73</ele>
        <time>2026-03-25T18:43:22Z</time>
      </trkpt>
      <trkpt lat="34.20204" lon="-117.08532">
        <ele>1855.51</ele>
        <time>2026-03-25T18:43:25Z</time>
      </trkpt>
      <trkpt lat="34.20202" lon="-117.08536">
        <ele>1855.09</ele>
        <time>2026-03-25T18:43:29Z</time>
      </trkpt>
      <trkpt lat="34.20199" lon="-117.08539">
        <ele>1854.68</ele>
        <time>2026-03-25T18:43:32Z</time>
      </trkpt>
      <trkpt lat="34.20196" lon="-117.0854">
        <ele>1854.63</ele>
        <time>2026-03-25T18:43:34Z</time>
      </trkpt>
      <trkpt lat="34.20192" lon="-117.08543">
        <ele>1854.0</ele>
        <time>2026-03-25T18:43:37Z</time>
      </trkpt>
      <trkpt lat="34.2019" lon="-117.08547">
        <ele>1853.44</ele>
        <time>2026-03-25T18:43:42Z</time>
      </trkpt>
      <trkpt lat="34.20189" lon="-117.08551">
        <ele>1852.9</ele>
        <time>2026-03-25T18:43:47Z</time>
      </trkpt>
      <trkpt lat="34.20191" lon="-117.08554">
        <ele>1852.8</ele>
        <time>2026-03-25T18:43:51Z</time>
      </trkpt>
      <trkpt lat="34.20194" lon="-117.08556">
        <ele>1852.86</ele>
        <time>2026-03-25T18:43:54Z</time>
      </trkpt>
      <trkpt lat="34.20196" lon="-117.08559">
        <ele>1852.09</ele>
        <time>2026-03-25T18:43:57Z</time>
      </trkpt>
      <trkpt lat="34.20199" lon="-117.08562">
        <ele>1851.12</ele>
        <time>2026-03-25T18:44:01Z</time>
      </trkpt>
      <trkpt lat="34.20202" lon="-117.08565">
        <ele>1850.14</ele>
        <time>2026-03-25T18:44:05Z</time>
      </trkpt>
      <trkpt lat="34.20204" lon="-117.08567">
        <ele>1849.47</ele>
        <time>2026-03-25T18:44:09Z</time>
      </trkpt>
      <trkpt lat="34.20205" lon="-117.0857">
        <ele>1848.68</ele>
        <time>2026-03-25T18:44:13Z</time>
      </trkpt>
      <trkpt lat="34.20207" lon="-117.08573">
        <ele>1847.83</ele>
        <time>2026-03-25T18:44:17Z</time>
      </trkpt>
      <trkpt lat="34.20209" lon="-117.08576">
        <ele>1847.22</ele>
        <time>2026-03-25T18:44:21Z</time>
      </trkpt>
      <trkpt lat="34.20212" lon="-117.08579">
        <ele>1846.57</ele>
        <time>2026-03-25T18:44:25Z</time>
      </trkpt>
      <trkpt lat="34.20214" lon="-117.08581">
        <ele>1846.0</ele>
        <time>2026-03-25T18:44:28Z</time>
      </trkpt>
      <trkpt lat="34.20217" lon="-117.08584">
        <ele>1845.09</ele>
        <time>2026-03-25T18:44:32Z</time>
      </trkpt>
      <trkpt lat="34.2022" lon="-117.08587">
        <ele>1844.38</ele>
        <time>2026-03-25T18:44:36Z</time>
      </trkpt>
      <trkpt lat="34.20222" lon="-117.0859">
        <ele>1844.03</ele>
        <time>2026-03-25T18:44:40Z</time>
      </trkpt>
      <trkpt lat="34.20225" lon="-117.08593">
        <ele>1843.37</ele>
        <time>2026-03-25T18:44:44Z</time>
      </trkpt>
      <trkpt lat="34.20227" lon="-117.08596">
        <ele>1842.79</ele>
        <time>2026-03-25T18:44:48Z</time>
      </trkpt>
      <trkpt lat="34.2023" lon="-117.08599">
        <ele>1842.21</ele>
        <time>2026-03-25T18:44:52Z</time>
      </trkpt>
      <trkpt lat="34.20233" lon="-117.08602">
        <ele>1841.84</ele>
        <time>2026-03-25T18:44:56Z</time>
      </trkpt>
      <trkpt lat="34.20235" lon="-117.08605">
        <ele>1841.62</ele>
        <time>2026-03-25T18:45:00Z</time>
      </trkpt>
      <trkpt lat="34.20238" lon="-117.08609">
        <ele>1841.3</ele>
        <time>2026-03-25T18:45:05Z</time>
      </trkpt>
      <trkpt lat="34.2024" lon="-117.08614">
        <ele>1841.08</ele>
        <time>2026-03-25T18:45:10Z</time>
      </trkpt>
      <trkpt lat="34.20242" lon="-117.08619">
        <ele>1840.88</ele>
        <time>2026-03-25T18:45:13Z</time>
      </trkpt>
      <trkpt lat="34.20243" lon="-117.08624">
        <ele>1840.46</ele>
        <time>2026-03-25T18:45:15Z</time>
      </trkpt>
      <trkpt lat="34.20245" lon="-117.0863">
        <ele>1839.96</ele>
        <time>2026-03-25T18:45:18Z</time>
      </trkpt>
      <trkpt lat="34.20246" lon="-117.08635">
        <ele>1839.42</ele>
        <time>2026-03-25T18:45:22Z</time>
      </trkpt>
      <trkpt lat="34.20248" lon="-117.08639">
        <ele>1839.0</ele>
        <time>2026-03-25T18:45:26Z</time>
      </trkpt>
      <trkpt lat="34.20247" lon="-117.08643">
        <ele>1838.86</ele>
        <time>2026-03-25T18:45:30Z</time>
      </trkpt>
      <trkpt lat="34.20243" lon="-117.08645">
        <ele>1838.5</ele>
        <time>2026-03-25T18:45:32Z</time>
      </trkpt>
      <trkpt lat="34.20239" lon="-117.08649">
        <ele>1838.0</ele>
        <time>2026-03-25T18:45:35Z</time>
      </trkpt>
      <trkpt lat="34.20238" lon="-117.08653">
        <ele>1837.25</ele>
        <time>2026-03-25T18:45:39Z</time>
      </trkpt>
      <trkpt lat="34.20237" lon="-117.08658">
        <ele>1836.25</ele>
        <time>2026-03-25T18:45:44Z</time>
      </trkpt>
      <trkpt lat="34.20236" lon="-117.08662">
        <ele>1835.27</ele>
        <time>2026-03-25T18:45:49Z</time>
      </trkpt>
      <trkpt lat="34.20237" lon="-117.08667">
        <ele>1833.93</ele>
        <time>2026-03-25T18:45:54Z</time>
      </trkpt>
      <trkpt lat="34.20236" lon="-117.08662">
        <ele>1835.27</ele>
        <time>2026-03-25T18:46:04Z</time>
      </trkpt>
      <trkpt lat="34.20235" lon="-117.08668">
        <ele>1833.71</ele>
        <time>2026-03-25T18:46:19Z</time>
      </trkpt>
      <trkpt lat="34.20234" lon="-117.08674">
        <ele>1832.42</ele>
        <time>2026-03-25T18:46:24Z</time>
      </trkpt>
      <trkpt lat="34.20231" lon="-117.0868">
        <ele>1831.12</ele>
        <time>2026-03-25T18:46:32Z</time>
      </trkpt>
      <trkpt lat="34.20228" lon="-117.08685">
        <ele>1830.04</ele>
        <time>2026-03-25T18:46:40Z</time>
      </trkpt>
      <trkpt lat="34.20225" lon="-117.0869">
        <ele>1828.96</ele>
        <time>2026-03-25T18:46:46Z</time>
      </trkpt>
      <trkpt lat="34.20222" lon="-117.08694">
        <ele>1828.09</ele>
        <time>2026-03-25T18:46:51Z</time>
      </trkpt>
      <trkpt lat="34.2022" lon="-117.08699">
        <ele>1828.0</ele>
        <time>2026-03-25T18:46:56Z</time>
      </trkpt>
      <trkpt lat="34.20219" lon="-117.08703">
        <ele>1828.0</ele>
        <time>2026-03-25T18:47:00Z</time>
      </trkpt>
      <trkpt lat="34.20218" lon="-117.08707">
        <ele>1828.16</ele>
        <time>2026-03-25T18:47:04Z</time>
      </trkpt>
      <trkpt lat="34.20217" lon="-117.08712">
        <ele>1828.51</ele>
        <time>2026-03-25T18:47:08Z</time>
      </trkpt>
      <trkpt lat="34.20217" lon="-117.08715">
        <ele>1829.0</ele>
        <time>2026-03-25T18:47:13Z</time>
      </trkpt>
      <trkpt lat="34.20215" lon="-117.0871">
        <ele>1828.53</ele>
        <time>2026-03-25T18:47:18Z</time>
      </trkpt>
      <trkpt lat="34.20215" lon="-117.08706">
        <ele>1828.19</ele>
        <time>2026-03-25T18:47:21Z</time>
      </trkpt>
      <trkpt lat="34.20213" lon="-117.08702">
        <ele>1828.0</ele>
        <time>2026-03-25T18:47:27Z</time>
      </trkpt>
      <trkpt lat="34.20216" lon="-117.087">
        <ele>1828.0</ele>
        <time>2026-03-25T18:47:52Z</time>
      </trkpt>
      <trkpt lat="34.20221" lon="-117.08705">
        <ele>1828.02</ele>
        <time>2026-03-25T18:48:46Z</time>
      </trkpt>
      <trkpt lat="34.20225" lon="-117.08709">
        <ele>1827.7</ele>
        <time>2026-03-25T18:48:55Z</time>
      </trkpt>
      <trkpt lat="34.20228" lon="-117.08714">
        <ele>1827.53</ele>
        <time>2026-03-25T18:48:59Z</time>
      </trkpt>
      <trkpt lat="34.2023" lon="-117.08721">
        <ele>1828.17</ele>
        <time>2026-03-25T18:49:02Z</time>
      </trkpt>
      <trkpt lat="34.20232" lon="-117.08727">
        <ele>1828.98</ele>
        <time>2026-03-25T18:49:05Z</time>
      </trkpt>
      <trkpt lat="34.20236" lon="-117.0873">
        <ele>1829.19</ele>
        <time>2026-03-25T18:49:09Z</time>
      </trkpt>
      <trkpt lat="34.20241" lon="-117.08731">
        <ele>1828.87</ele>
        <time>2026-03-25T18:49:11Z</time>
      </trkpt>
      <trkpt lat="34.20245" lon="-117.08733">
        <ele>1828.87</ele>
        <time>2026-03-25T18:49:13Z</time>
      </trkpt>
      <trkpt lat="34.20249" lon="-117.08734">
        <ele>1828.65</ele>
        <time>2026-03-25T18:49:16Z</time>
      </trkpt>
      <trkpt lat="34.20253" lon="-117.08735">
        <ele>1828.44</ele>
        <time>2026-03-25T18:49:19Z</time>
      </trkpt>
      <trkpt lat="34.20256" lon="-117.08737">
        <ele>1828.54</ele>
        <time>2026-03-25T18:49:23Z</time>
      </trkpt>
      <trkpt lat="34.2026" lon="-117.08739">
        <ele>1828.54</ele>
        <time>2026-03-25T18:49:27Z</time>
      </trkpt>
      <trkpt lat="34.20264" lon="-117.08742">
        <ele>1828.69</ele>
        <time>2026-03-25T18:49:31Z</time>
      </trkpt>
      <trkpt lat="34.20267" lon="-117.08744">
        <ele>1828.81</ele>
        <time>2026-03-25T18:49:35Z</time>
      </trkpt>
      <trkpt lat="34.20271" lon="-117.08745">
        <ele>1828.65</ele>
        <time>2026-03-25T18:49:39Z</time>
      </trkpt>
      <trkpt lat="34.20275" lon="-117.08747">
        <ele>1828.65</ele>
        <time>2026-03-25T18:49:46Z</time>
      </trkpt>
      <trkpt lat="34.20278" lon="-117.08749">
        <ele>1828.76</ele>
        <time>2026-03-25T18:49:52Z</time>
      </trkpt>
      <trkpt lat="34.20281" lon="-117.08751">
        <ele>1828.87</ele>
        <time>2026-03-25T18:49:57Z</time>
      </trkpt>
      <trkpt lat="34.20285" lon="-117.08753">
        <ele>1828.87</ele>
        <time>2026-03-25T18:50:02Z</time>
      </trkpt>
      <trkpt lat="34.20288" lon="-117.08754">
        <ele>1828.76</ele>
        <time>2026-03-25T18:50:06Z</time>
      </trkpt>
      <trkpt lat="34.20291" lon="-117.08756">
        <ele>1828.87</ele>
        <time>2026-03-25T18:50:10Z</time>
      </trkpt>
      <trkpt lat="34.20295" lon="-117.08758">
        <ele>1828.87</ele>
        <time>2026-03-25T18:50:14Z</time>
      </trkpt>
      <trkpt lat="34.20298" lon="-117.0876">
        <ele>1829.15</ele>
        <time>2026-03-25T18:50:18Z</time>
      </trkpt>
      <trkpt lat="34.20302" lon="-117.08763">
        <ele>1829.56</ele>
        <time>2026-03-25T18:50:22Z</time>
      </trkpt>
      <trkpt lat="34.20306" lon="-117.08765">
        <ele>1829.58</ele>
        <time>2026-03-25T18:50:26Z</time>
      </trkpt>
      <trkpt lat="34.20309" lon="-117.08767">
        <ele>1829.71</ele>
        <time>2026-03-25T18:50:30Z</time>
      </trkpt>
      <trkpt lat="34.20312" lon="-117.08768">
        <ele>1829.87</ele>
        <time>2026-03-25T18:50:33Z</time>
      </trkpt>
      <trkpt lat="34.20316" lon="-117.0877">
        <ele>1829.76</ele>
        <time>2026-03-25T18:50:37Z</time>
      </trkpt>
      <trkpt lat="34.20316" lon="-117.08774">
        <ele>1829.82</ele>
        <time>2026-03-25T18:50:46Z</time>
      </trkpt>
      <trkpt lat="34.20315" lon="-117.0877">
        <ele>1829.96</ele>
        <time>2026-03-25T18:50:55Z</time>
      </trkpt>
      <trkpt lat="34.20319" lon="-117.08771">
        <ele>1829.22</ele>
        <time>2026-03-25T18:51:03Z</time>
      </trkpt>
      <trkpt lat="34.20323" lon="-117.08774">
        <ele>1828.76</ele>
        <time>2026-03-25T18:51:06Z</time>
      </trkpt>
      <trkpt lat="34.20328" lon="-117.08775">
        <ele>1827.72</ele>
        <time>2026-03-25T18:51:09Z</time>
      </trkpt>
      <trkpt lat="34.20331" lon="-117.08776">
        <ele>1827.17</ele>
        <time>2026-03-25T18:51:12Z</time>
      </trkpt>
      <trkpt lat="34.20335" lon="-117.08778">
        <ele>1826.46</ele>
        <time>2026-03-25T18:51:16Z</time>
      </trkpt>
      <trkpt lat="34.20339" lon="-117.08779">
        <ele>1825.24</ele>
        <time>2026-03-25T18:51:20Z</time>
      </trkpt>
      <trkpt lat="34.20342" lon="-117.08781">
        <ele>1824.52</ele>
        <time>2026-03-25T18:51:25Z</time>
      </trkpt>
      <trkpt lat="34.20338" lon="-117.08781">
        <ele>1825.66</ele>
        <time>2026-03-25T18:51:29Z</time>
      </trkpt>
      <trkpt lat="34.20342" lon="-117.08783">
        <ele>1824.72</ele>
        <time>2026-03-25T18:51:36Z</time>
      </trkpt>
      <trkpt lat="34.20346" lon="-117.08785">
        <ele>1824.12</ele>
        <time>2026-03-25T18:51:40Z</time>
      </trkpt>
      <trkpt lat="34.20348" lon="-117.08791">
        <ele>1824.08</ele>
        <time>2026-03-25T18:51:49Z</time>
      </trkpt>
    </trkseg>
  </trk>
</gpx>
