<?xml version="1.0"?>
<gpx xmlns="http://www.topografix.com/GPX/1/1" xmlns:xsi="http://www.w3.org/2001/XMLSchema-instance" version="1.1" creator="AllTrails.com" xsi:schemaLocation="http://www.topografix.com/GPX/1/1 http://www.topografix.com/GPX/1/1/gpx.xsd">
  <metadata>
    <name><![CDATA[Heaps Peak Arboretum]]></name>
    <desc><![CDATA[]]></desc>
    <link href="http://www.alltrails.com">
      <text>AllTrails, LLC</text>
    </link>
    <bounds minlat="34.23345" minlon="-117.16252" maxlat="34.23589" maxlon="-117.15857"/>
  </metadata>
  <trk>
    <name><![CDATA[Heaps Peak Arboretum]]></name>
    <src>AllTrails</src>
    <trkseg>
      <trkpt lat="34.23388" lon="-117.16066">
        <ele>1825.88</ele>
        <time>2026-03-25T16:04:20Z</time>
      </trkpt>
      <trkpt lat="34.2339" lon="-117.16069">
        <ele>1825.48</ele>
        <time>2026-03-25T16:04:24Z</time>
      </trkpt>
      <trkpt lat="34.23393" lon="-117.16071">
        <ele>1825.18</ele>
        <time>2026-03-25T16:04:29Z</time>
      </trkpt>
      <trkpt lat="34.23396" lon="-117.1607">
        <ele>1825.1</ele>
        <time>2026-03-25T16:04:40Z</time>
      </trkpt>
      <trkpt lat="34.23397" lon="-117.16065">
        <ele>1825.12</ele>
        <time>2026-03-25T16:04:45Z</time>
      </trkpt>
      <trkpt lat="34.23397" lon="-117.16062">
        <ele>1825.39</ele>
        <time>2026-03-25T16:04:49Z</time>
      </trkpt>
      <trkpt lat="34.23398" lon="-117.16058">
        <ele>1825.74</ele>
        <time>2026-03-25T16:04:53Z</time>
      </trkpt>
      <trkpt lat="34.234" lon="-117.16055">
        <ele>1825.81</ele>
        <time>2026-03-25T16:04:57Z</time>
      </trkpt>
      <trkpt lat="34.23401" lon="-117.16052">
        <ele>1825.81</ele>
        <time>2026-03-25T16:05:00Z</time>
      </trkpt>
      <trkpt lat="34.23403" lon="-117.16049">
        <ele>1825.85</ele>
        <time>2026-03-25T16:05:03Z</time>
      </trkpt>
      <trkpt lat="34.23404" lon="-117.16047">
        <ele>1825.95</ele>
        <time>2026-03-25T16:05:06Z</time>
      </trkpt>
      <trkpt lat="34.23406" lon="-117.16043">
        <ele>1826.36</ele>
        <time>2026-03-25T16:05:10Z</time>
      </trkpt>
      <trkpt lat="34.23408" lon="-117.16039">
        <ele>1826.79</ele>
        <time>2026-03-25T16:05:14Z</time>
      </trkpt>
      <trkpt lat="34.23409" lon="-117.16036">
        <ele>1827.11</ele>
        <time>2026-03-25T16:05:17Z</time>
      </trkpt>
      <trkpt lat="34.2341" lon="-117.16032">
        <ele>1827.54</ele>
        <time>2026-03-25T16:05:21Z</time>
      </trkpt>
      <trkpt lat="34.2341" lon="-117.16028">
        <ele>1827.98</ele>
        <time>2026-03-25T16:05:23Z</time>
      </trkpt>
      <trkpt lat="34.2341" lon="-117.16023">
        <ele>1828.89</ele>
        <time>2026-03-25T16:05:25Z</time>
      </trkpt>
      <trkpt lat="34.23411" lon="-117.16019">
        <ele>1829.53</ele>
        <time>2026-03-25T16:05:27Z</time>
      </trkpt>
      <trkpt lat="34.23413" lon="-117.16017">
        <ele>1829.5</ele>
        <time>2026-03-25T16:05:36Z</time>
      </trkpt>
      <trkpt lat="34.23415" lon="-117.16019">
        <ele>1829.12</ele>
        <time>2026-03-25T16:05:47Z</time>
      </trkpt>
      <trkpt lat="34.23416" lon="-117.16022">
        <ele>1828.67</ele>
        <time>2026-03-25T16:06:02Z</time>
      </trkpt>
      <trkpt lat="34.23413" lon="-117.16023">
        <ele>1828.72</ele>
        <time>2026-03-25T16:06:05Z</time>
      </trkpt>
      <trkpt lat="34.2341" lon="-117.16023">
        <ele>1828.89</ele>
        <time>2026-03-25T16:06:12Z</time>
      </trkpt>
      <trkpt lat="34.23408" lon="-117.16026">
        <ele>1828.37</ele>
        <time>2026-03-25T16:06:26Z</time>
      </trkpt>
      <trkpt lat="34.23407" lon="-117.1603">
        <ele>1827.79</ele>
        <time>2026-03-25T16:06:31Z</time>
      </trkpt>
      <trkpt lat="34.23406" lon="-117.16036">
        <ele>1827.13</ele>
        <time>2026-03-25T16:06:33Z</time>
      </trkpt>
      <trkpt lat="34.23406" lon="-117.16042">
        <ele>1826.46</ele>
        <time>2026-03-25T16:06:35Z</time>
      </trkpt>
      <trkpt lat="34.23405" lon="-117.16046">
        <ele>1826.03</ele>
        <time>2026-03-25T16:06:37Z</time>
      </trkpt>
      <trkpt lat="34.23404" lon="-117.16051">
        <ele>1825.68</ele>
        <time>2026-03-25T16:06:40Z</time>
      </trkpt>
      <trkpt lat="34.23403" lon="-117.16055">
        <ele>1825.51</ele>
        <time>2026-03-25T16:06:43Z</time>
      </trkpt>
      <trkpt lat="34.23402" lon="-117.16058">
        <ele>1825.32</ele>
        <time>2026-03-25T16:06:46Z</time>
      </trkpt>
      <trkpt lat="34.23401" lon="-117.16061">
        <ele>1825.1</ele>
        <time>2026-03-25T16:06:49Z</time>
      </trkpt>
      <trkpt lat="34.23398" lon="-117.16062">
        <ele>1825.32</ele>
        <time>2026-03-25T16:06:54Z</time>
      </trkpt>
      <trkpt lat="34.23395" lon="-117.16061">
        <ele>1825.61</ele>
        <time>2026-03-25T16:07:01Z</time>
      </trkpt>
      <trkpt lat="34.23393" lon="-117.16064">
        <ele>1825.6</ele>
        <time>2026-03-25T16:07:08Z</time>
      </trkpt>
      <trkpt lat="34.23392" lon="-117.16068">
        <ele>1825.44</ele>
        <time>2026-03-25T16:07:11Z</time>
      </trkpt>
      <trkpt lat="34.23392" lon="-117.16071">
        <ele>1825.22</ele>
        <time>2026-03-25T16:07:14Z</time>
      </trkpt>
      <trkpt lat="34.23395" lon="-117.16074">
        <ele>1825.0</ele>
        <time>2026-03-25T16:07:17Z</time>
      </trkpt>
      <trkpt lat="34.23399" lon="-117.16075">
        <ele>1824.82</ele>
        <time>2026-03-25T16:07:19Z</time>
      </trkpt>
      <trkpt lat="34.23404" lon="-117.16076">
        <ele>1824.29</ele>
        <time>2026-03-25T16:07:21Z</time>
      </trkpt>
      <trkpt lat="34.23407" lon="-117.16077">
        <ele>1824.03</ele>
        <time>2026-03-25T16:07:23Z</time>
      </trkpt>
      <trkpt lat="34.2341" lon="-117.16078">
        <ele>1823.72</ele>
        <time>2026-03-25T16:07:25Z</time>
      </trkpt>
      <trkpt lat="34.23412" lon="-117.16081">
        <ele>1823.5</ele>
        <time>2026-03-25T16:07:31Z</time>
      </trkpt>
      <trkpt lat="34.23415" lon="-117.16078">
        <ele>1823.18</ele>
        <time>2026-03-25T16:07:38Z</time>
      </trkpt>
      <trkpt lat="34.23416" lon="-117.16074">
        <ele>1823.08</ele>
        <time>2026-03-25T16:07:41Z</time>
      </trkpt>
      <trkpt lat="34.23419" lon="-117.16073">
        <ele>1823.09</ele>
        <time>2026-03-25T16:07:50Z</time>
      </trkpt>
      <trkpt lat="34.23421" lon="-117.1607">
        <ele>1823.23</ele>
        <time>2026-03-25T16:07:59Z</time>
      </trkpt>
      <trkpt lat="34.23425" lon="-117.16069">
        <ele>1823.05</ele>
        <time>2026-03-25T16:08:08Z</time>
      </trkpt>
      <trkpt lat="34.23429" lon="-117.16068">
        <ele>1822.89</ele>
        <time>2026-03-25T16:08:14Z</time>
      </trkpt>
      <trkpt lat="34.23433" lon="-117.16068">
        <ele>1822.74</ele>
        <time>2026-03-25T16:08:20Z</time>
      </trkpt>
      <trkpt lat="34.23437" lon="-117.16068">
        <ele>1822.53</ele>
        <time>2026-03-25T16:08:29Z</time>
      </trkpt>
      <trkpt lat="34.23433" lon="-117.16068">
        <ele>1822.74</ele>
        <time>2026-03-25T16:08:51Z</time>
      </trkpt>
      <trkpt lat="34.23436" lon="-117.16065">
        <ele>1822.89</ele>
        <time>2026-03-25T16:09:02Z</time>
      </trkpt>
      <trkpt lat="34.23437" lon="-117.16061">
        <ele>1822.88</ele>
        <time>2026-03-25T16:09:04Z</time>
      </trkpt>
      <trkpt lat="34.23438" lon="-117.16056">
        <ele>1822.99</ele>
        <time>2026-03-25T16:09:06Z</time>
      </trkpt>
      <trkpt lat="34.23439" lon="-117.16052">
        <ele>1823.23</ele>
        <time>2026-03-25T16:09:08Z</time>
      </trkpt>
      <trkpt lat="34.23439" lon="-117.16046">
        <ele>1823.61</ele>
        <time>2026-03-25T16:09:11Z</time>
      </trkpt>
      <trkpt lat="34.2344" lon="-117.16042">
        <ele>1823.7</ele>
        <time>2026-03-25T16:09:14Z</time>
      </trkpt>
      <trkpt lat="34.2344" lon="-117.16037">
        <ele>1823.96</ele>
        <time>2026-03-25T16:09:18Z</time>
      </trkpt>
      <trkpt lat="34.2344" lon="-117.16033">
        <ele>1823.96</ele>
        <time>2026-03-25T16:09:22Z</time>
      </trkpt>
      <trkpt lat="34.23439" lon="-117.16029">
        <ele>1824.18</ele>
        <time>2026-03-25T16:09:26Z</time>
      </trkpt>
      <trkpt lat="34.23438" lon="-117.16024">
        <ele>1824.55</ele>
        <time>2026-03-25T16:09:30Z</time>
      </trkpt>
      <trkpt lat="34.23437" lon="-117.1602">
        <ele>1825.12</ele>
        <time>2026-03-25T16:09:34Z</time>
      </trkpt>
      <trkpt lat="34.23436" lon="-117.16017">
        <ele>1825.5</ele>
        <time>2026-03-25T16:09:38Z</time>
      </trkpt>
      <trkpt lat="34.23436" lon="-117.16013">
        <ele>1825.1</ele>
        <time>2026-03-25T16:09:42Z</time>
      </trkpt>
      <trkpt lat="34.23435" lon="-117.16009">
        <ele>1825.06</ele>
        <time>2026-03-25T16:09:46Z</time>
      </trkpt>
      <trkpt lat="34.23434" lon="-117.16004">
        <ele>1825.38</ele>
        <time>2026-03-25T16:09:50Z</time>
      </trkpt>
      <trkpt lat="34.23433" lon="-117.16">
        <ele>1825.71</ele>
        <time>2026-03-25T16:09:54Z</time>
      </trkpt>
      <trkpt lat="34.23433" lon="-117.15995">
        <ele>1825.17</ele>
        <time>2026-03-25T16:09:58Z</time>
      </trkpt>
      <trkpt lat="34.23432" lon="-117.15991">
        <ele>1825.06</ele>
        <time>2026-03-25T16:10:02Z</time>
      </trkpt>
      <trkpt lat="34.23431" lon="-117.15987">
        <ele>1824.95</ele>
        <time>2026-03-25T16:10:05Z</time>
      </trkpt>
      <trkpt lat="34.23431" lon="-117.15984">
        <ele>1824.63</ele>
        <time>2026-03-25T16:10:08Z</time>
      </trkpt>
      <trkpt lat="34.2343" lon="-117.1598">
        <ele>1824.68</ele>
        <time>2026-03-25T16:10:11Z</time>
      </trkpt>
      <trkpt lat="34.23429" lon="-117.15976">
        <ele>1825.0</ele>
        <time>2026-03-25T16:10:14Z</time>
      </trkpt>
      <trkpt lat="34.23428" lon="-117.15972">
        <ele>1825.3</ele>
        <time>2026-03-25T16:10:17Z</time>
      </trkpt>
      <trkpt lat="34.23428" lon="-117.15969">
        <ele>1824.98</ele>
        <time>2026-03-25T16:10:20Z</time>
      </trkpt>
      <trkpt lat="34.23427" lon="-117.15965">
        <ele>1824.87</ele>
        <time>2026-03-25T16:10:23Z</time>
      </trkpt>
      <trkpt lat="34.23426" lon="-117.15961">
        <ele>1824.98</ele>
        <time>2026-03-25T16:10:26Z</time>
      </trkpt>
      <trkpt lat="34.23426" lon="-117.15958">
        <ele>1824.98</ele>
        <time>2026-03-25T16:10:29Z</time>
      </trkpt>
      <trkpt lat="34.23426" lon="-117.15954">
        <ele>1824.98</ele>
        <time>2026-03-25T16:10:32Z</time>
      </trkpt>
      <trkpt lat="34.23425" lon="-117.1595">
        <ele>1825.3</ele>
        <time>2026-03-25T16:10:36Z</time>
      </trkpt>
      <trkpt lat="34.23425" lon="-117.15946">
        <ele>1825.3</ele>
        <time>2026-03-25T16:10:40Z</time>
      </trkpt>
      <trkpt lat="34.23424" lon="-117.15942">
        <ele>1825.62</ele>
        <time>2026-03-25T16:10:51Z</time>
      </trkpt>
      <trkpt lat="34.23424" lon="-117.15938">
        <ele>1825.62</ele>
        <time>2026-03-25T16:10:54Z</time>
      </trkpt>
      <trkpt lat="34.23424" lon="-117.15934">
        <ele>1825.73</ele>
        <time>2026-03-25T16:10:57Z</time>
      </trkpt>
      <trkpt lat="34.23424" lon="-117.1593">
        <ele>1826.07</ele>
        <time>2026-03-25T16:11:01Z</time>
      </trkpt>
      <trkpt lat="34.23425" lon="-117.15925">
        <ele>1826.3</ele>
        <time>2026-03-25T16:11:20Z</time>
      </trkpt>
      <trkpt lat="34.2343" lon="-117.15922">
        <ele>1825.1</ele>
        <time>2026-03-25T16:11:25Z</time>
      </trkpt>
      <trkpt lat="34.23434" lon="-117.15921">
        <ele>1823.92</ele>
        <time>2026-03-25T16:11:27Z</time>
      </trkpt>
      <trkpt lat="34.23437" lon="-117.15919">
        <ele>1822.96</ele>
        <time>2026-03-25T16:11:30Z</time>
      </trkpt>
      <trkpt lat="34.2344" lon="-117.15915">
        <ele>1822.19</ele>
        <time>2026-03-25T16:11:35Z</time>
      </trkpt>
      <trkpt lat="34.23443" lon="-117.1591">
        <ele>1821.95</ele>
        <time>2026-03-25T16:11:40Z</time>
      </trkpt>
      <trkpt lat="34.23446" lon="-117.15906">
        <ele>1821.65</ele>
        <time>2026-03-25T16:11:44Z</time>
      </trkpt>
      <trkpt lat="34.23449" lon="-117.15903">
        <ele>1821.0</ele>
        <time>2026-03-25T16:11:48Z</time>
      </trkpt>
      <trkpt lat="34.23451" lon="-117.15899">
        <ele>1820.78</ele>
        <time>2026-03-25T16:11:52Z</time>
      </trkpt>
      <trkpt lat="34.23453" lon="-117.15895">
        <ele>1820.59</ele>
        <time>2026-03-25T16:11:56Z</time>
      </trkpt>
      <trkpt lat="34.23456" lon="-117.15891">
        <ele>1820.03</ele>
        <time>2026-03-25T16:12:00Z</time>
      </trkpt>
      <trkpt lat="34.23458" lon="-117.15887">
        <ele>1819.92</ele>
        <time>2026-03-25T16:12:05Z</time>
      </trkpt>
      <trkpt lat="34.23459" lon="-117.15883">
        <ele>1820.19</ele>
        <time>2026-03-25T16:12:10Z</time>
      </trkpt>
      <trkpt lat="34.23461" lon="-117.15879">
        <ele>1819.97</ele>
        <time>2026-03-25T16:12:15Z</time>
      </trkpt>
      <trkpt lat="34.23463" lon="-117.15875">
        <ele>1820.0</ele>
        <time>2026-03-25T16:12:22Z</time>
      </trkpt>
      <trkpt lat="34.23464" lon="-117.1587">
        <ele>1821.01</ele>
        <time>2026-03-25T16:12:31Z</time>
      </trkpt>
      <trkpt lat="34.23466" lon="-117.15864">
        <ele>1822.74</ele>
        <time>2026-03-25T16:12:40Z</time>
      </trkpt>
      <trkpt lat="34.2347" lon="-117.15861">
        <ele>1823.27</ele>
        <time>2026-03-25T16:12:48Z</time>
      </trkpt>
      <trkpt lat="34.23475" lon="-117.15857">
        <ele>1824.2</ele>
        <time>2026-03-25T16:12:59Z</time>
      </trkpt>
      <trkpt lat="34.23477" lon="-117.15866">
        <ele>1821.69</ele>
        <time>2026-03-25T16:13:02Z</time>
      </trkpt>
      <trkpt lat="34.23477" lon="-117.15873">
        <ele>1819.95</ele>
        <time>2026-03-25T16:13:03Z</time>
      </trkpt>
      <trkpt lat="34.23478" lon="-117.15881">
        <ele>1818.48</ele>
        <time>2026-03-25T16:13:05Z</time>
      </trkpt>
      <trkpt lat="34.23481" lon="-117.15886">
        <ele>1818.26</ele>
        <time>2026-03-25T16:13:09Z</time>
      </trkpt>
      <trkpt lat="34.23484" lon="-117.15888">
        <ele>1818.37</ele>
        <time>2026-03-25T16:13:15Z</time>
      </trkpt>
      <trkpt lat="34.23487" lon="-117.15891">
        <ele>1818.5</ele>
        <time>2026-03-25T16:13:20Z</time>
      </trkpt>
      <trkpt lat="34.2349" lon="-117.15894">
        <ele>1818.88</ele>
        <time>2026-03-25T16:13:25Z</time>
      </trkpt>
      <trkpt lat="34.23492" lon="-117.15898">
        <ele>1819.14</ele>
        <time>2026-03-25T16:13:29Z</time>
      </trkpt>
      <trkpt lat="34.23496" lon="-117.15901">
        <ele>1819.43</ele>
        <time>2026-03-25T16:13:35Z</time>
      </trkpt>
      <trkpt lat="34.23499" lon="-117.15905">
        <ele>1819.81</ele>
        <time>2026-03-25T16:13:43Z</time>
      </trkpt>
      <trkpt lat="34.23502" lon="-117.1591">
        <ele>1819.94</ele>
        <time>2026-03-25T16:13:52Z</time>
      </trkpt>
      <trkpt lat="34.23503" lon="-117.15915">
        <ele>1819.5</ele>
        <time>2026-03-25T16:13:59Z</time>
      </trkpt>
      <trkpt lat="34.23499" lon="-117.15918">
        <ele>1818.51</ele>
        <time>2026-03-25T16:14:03Z</time>
      </trkpt>
      <trkpt lat="34.23496" lon="-117.15922">
        <ele>1817.23</ele>
        <time>2026-03-25T16:14:07Z</time>
      </trkpt>
      <trkpt lat="34.23497" lon="-117.15925">
        <ele>1816.84</ele>
        <time>2026-03-25T16:14:11Z</time>
      </trkpt>
      <trkpt lat="34.23499" lon="-117.15928">
        <ele>1816.67</ele>
        <time>2026-03-25T16:14:15Z</time>
      </trkpt>
      <trkpt lat="34.23501" lon="-117.15925">
        <ele>1817.41</ele>
        <time>2026-03-25T16:14:26Z</time>
      </trkpt>
      <trkpt lat="34.23504" lon="-117.15927">
        <ele>1817.7</ele>
        <time>2026-03-25T16:14:39Z</time>
      </trkpt>
      <trkpt lat="34.23506" lon="-117.1593">
        <ele>1817.57</ele>
        <time>2026-03-25T16:14:43Z</time>
      </trkpt>
      <trkpt lat="34.23507" lon="-117.15933">
        <ele>1817.17</ele>
        <time>2026-03-25T16:14:51Z</time>
      </trkpt>
      <trkpt lat="34.2351" lon="-117.15935">
        <ele>1817.2</ele>
        <time>2026-03-25T16:14:57Z</time>
      </trkpt>
      <trkpt lat="34.23512" lon="-117.15937">
        <ele>1817.34</ele>
        <time>2026-03-25T16:15:02Z</time>
      </trkpt>
      <trkpt lat="34.23514" lon="-117.15939">
        <ele>1817.4</ele>
        <time>2026-03-25T16:15:09Z</time>
      </trkpt>
      <trkpt lat="34.23516" lon="-117.15942">
        <ele>1817.18</ele>
        <time>2026-03-25T16:15:14Z</time>
      </trkpt>
      <trkpt lat="34.23518" lon="-117.15945">
        <ele>1816.88</ele>
        <time>2026-03-25T16:15:19Z</time>
      </trkpt>
      <trkpt lat="34.2352" lon="-117.15947">
        <ele>1817.0</ele>
        <time>2026-03-25T16:15:24Z</time>
      </trkpt>
      <trkpt lat="34.23522" lon="-117.1595">
        <ele>1816.93</ele>
        <time>2026-03-25T16:15:30Z</time>
      </trkpt>
      <trkpt lat="34.23523" lon="-117.15953">
        <ele>1816.6</ele>
        <time>2026-03-25T16:15:38Z</time>
      </trkpt>
      <trkpt lat="34.23525" lon="-117.15956">
        <ele>1816.2</ele>
        <time>2026-03-25T16:15:45Z</time>
      </trkpt>
      <trkpt lat="34.23527" lon="-117.15953">
        <ele>1817.06</ele>
        <time>2026-03-25T16:15:53Z</time>
      </trkpt>
      <trkpt lat="34.23531" lon="-117.15953">
        <ele>1817.85</ele>
        <time>2026-03-25T16:16:55Z</time>
      </trkpt>
      <trkpt lat="34.23533" lon="-117.15957">
        <ele>1817.42</ele>
        <time>2026-03-25T16:17:05Z</time>
      </trkpt>
      <trkpt lat="34.23536" lon="-117.15961">
        <ele>1817.2</ele>
        <time>2026-03-25T16:17:31Z</time>
      </trkpt>
      <trkpt lat="34.23532" lon="-117.15961">
        <ele>1816.34</ele>
        <time>2026-03-25T16:17:36Z</time>
      </trkpt>
      <trkpt lat="34.23525" lon="-117.1596">
        <ele>1815.34</ele>
        <time>2026-03-25T16:17:38Z</time>
      </trkpt>
      <trkpt lat="34.2352" lon="-117.1596">
        <ele>1814.8</ele>
        <time>2026-03-25T16:17:40Z</time>
      </trkpt>
      <trkpt lat="34.23516" lon="-117.15959">
        <ele>1814.47</ele>
        <time>2026-03-25T16:17:43Z</time>
      </trkpt>
      <trkpt lat="34.23512" lon="-117.15958">
        <ele>1813.99</ele>
        <time>2026-03-25T16:17:46Z</time>
      </trkpt>
      <trkpt lat="34.2351" lon="-117.15954">
        <ele>1814.13</ele>
        <time>2026-03-25T16:17:48Z</time>
      </trkpt>
      <trkpt lat="34.23509" lon="-117.1595">
        <ele>1814.77</ele>
        <time>2026-03-25T16:17:50Z</time>
      </trkpt>
      <trkpt lat="34.23507" lon="-117.15947">
        <ele>1815.2</ele>
        <time>2026-03-25T16:17:52Z</time>
      </trkpt>
      <trkpt lat="34.23505" lon="-117.15945">
        <ele>1815.42</ele>
        <time>2026-03-25T16:17:55Z</time>
      </trkpt>
      <trkpt lat="34.23503" lon="-117.15942">
        <ele>1815.59</ele>
        <time>2026-03-25T16:17:58Z</time>
      </trkpt>
      <trkpt lat="34.23501" lon="-117.15939">
        <ele>1815.7</ele>
        <time>2026-03-25T16:18:01Z</time>
      </trkpt>
      <trkpt lat="34.23498" lon="-117.15936">
        <ele>1815.7</ele>
        <time>2026-03-25T16:18:04Z</time>
      </trkpt>
      <trkpt lat="34.23496" lon="-117.15935">
        <ele>1815.59</ele>
        <time>2026-03-25T16:18:07Z</time>
      </trkpt>
      <trkpt lat="34.23493" lon="-117.15936">
        <ele>1815.16</ele>
        <time>2026-03-25T16:18:11Z</time>
      </trkpt>
      <trkpt lat="34.23492" lon="-117.1594">
        <ele>1814.62</ele>
        <time>2026-03-25T16:18:14Z</time>
      </trkpt>
      <trkpt lat="34.23494" lon="-117.15942">
        <ele>1814.62</ele>
        <time>2026-03-25T16:18:16Z</time>
      </trkpt>
      <trkpt lat="34.23497" lon="-117.15943">
        <ele>1814.83</ele>
        <time>2026-03-25T16:18:17Z</time>
      </trkpt>
      <trkpt lat="34.235" lon="-117.15944">
        <ele>1815.05</ele>
        <time>2026-03-25T16:18:18Z</time>
      </trkpt>
      <trkpt lat="34.23503" lon="-117.15946">
        <ele>1814.99</ele>
        <time>2026-03-25T16:18:20Z</time>
      </trkpt>
      <trkpt lat="34.23505" lon="-117.15949">
        <ele>1814.56</ele>
        <time>2026-03-25T16:18:23Z</time>
      </trkpt>
      <trkpt lat="34.23506" lon="-117.15952">
        <ele>1814.02</ele>
        <time>2026-03-25T16:18:26Z</time>
      </trkpt>
      <trkpt lat="34.23507" lon="-117.15956">
        <ele>1813.45</ele>
        <time>2026-03-25T16:18:29Z</time>
      </trkpt>
      <trkpt lat="34.23508" lon="-117.1596">
        <ele>1813.09</ele>
        <time>2026-03-25T16:18:33Z</time>
      </trkpt>
      <trkpt lat="34.2351" lon="-117.15962">
        <ele>1813.19</ele>
        <time>2026-03-25T16:18:36Z</time>
      </trkpt>
      <trkpt lat="34.23512" lon="-117.15965">
        <ele>1812.7</ele>
        <time>2026-03-25T16:18:39Z</time>
      </trkpt>
      <trkpt lat="34.23515" lon="-117.15967">
        <ele>1812.58</ele>
        <time>2026-03-25T16:18:42Z</time>
      </trkpt>
      <trkpt lat="34.23517" lon="-117.15968">
        <ele>1812.66</ele>
        <time>2026-03-25T16:18:45Z</time>
      </trkpt>
      <trkpt lat="34.2352" lon="-117.1597">
        <ele>1812.64</ele>
        <time>2026-03-25T16:18:48Z</time>
      </trkpt>
      <trkpt lat="34.23523" lon="-117.15972">
        <ele>1812.53</ele>
        <time>2026-03-25T16:18:51Z</time>
      </trkpt>
      <trkpt lat="34.23525" lon="-117.15973">
        <ele>1812.53</ele>
        <time>2026-03-25T16:18:54Z</time>
      </trkpt>
      <trkpt lat="34.23528" lon="-117.15975">
        <ele>1812.45</ele>
        <time>2026-03-25T16:18:57Z</time>
      </trkpt>
      <trkpt lat="34.23531" lon="-117.15976">
        <ele>1812.88</ele>
        <time>2026-03-25T16:19:00Z</time>
      </trkpt>
      <trkpt lat="34.23533" lon="-117.15978">
        <ele>1812.88</ele>
        <time>2026-03-25T16:19:03Z</time>
      </trkpt>
      <trkpt lat="34.23536" lon="-117.1598">
        <ele>1813.1</ele>
        <time>2026-03-25T16:19:06Z</time>
      </trkpt>
      <trkpt lat="34.23538" lon="-117.15982">
        <ele>1812.94</ele>
        <time>2026-03-25T16:19:09Z</time>
      </trkpt>
      <trkpt lat="34.2354" lon="-117.15985">
        <ele>1812.3</ele>
        <time>2026-03-25T16:19:12Z</time>
      </trkpt>
      <trkpt lat="34.23542" lon="-117.15988">
        <ele>1811.8</ele>
        <time>2026-03-25T16:19:15Z</time>
      </trkpt>
      <trkpt lat="34.23543" lon="-117.15991">
        <ele>1811.23</ele>
        <time>2026-03-25T16:19:19Z</time>
      </trkpt>
      <trkpt lat="34.23544" lon="-117.15995">
        <ele>1810.58</ele>
        <time>2026-03-25T16:19:23Z</time>
      </trkpt>
      <trkpt lat="34.23546" lon="-117.15997">
        <ele>1810.58</ele>
        <time>2026-03-25T16:19:26Z</time>
      </trkpt>
      <trkpt lat="34.23548" lon="-117.16">
        <ele>1810.37</ele>
        <time>2026-03-25T16:19:29Z</time>
      </trkpt>
      <trkpt lat="34.2355" lon="-117.16002">
        <ele>1810.28</ele>
        <time>2026-03-25T16:19:32Z</time>
      </trkpt>
      <trkpt lat="34.23552" lon="-117.16004">
        <ele>1810.1</ele>
        <time>2026-03-25T16:19:35Z</time>
      </trkpt>
      <trkpt lat="34.23555" lon="-117.16007">
        <ele>1809.66</ele>
        <time>2026-03-25T16:19:38Z</time>
      </trkpt>
      <trkpt lat="34.23557" lon="-117.16008">
        <ele>1809.7</ele>
        <time>2026-03-25T16:19:41Z</time>
      </trkpt>
      <trkpt lat="34.23561" lon="-117.1601">
        <ele>1810.02</ele>
        <time>2026-03-25T16:19:44Z</time>
      </trkpt>
      <trkpt lat="34.23563" lon="-117.16012">
        <ele>1810.02</ele>
        <time>2026-03-25T16:19:46Z</time>
      </trkpt>
      <trkpt lat="34.23567" lon="-117.16012">
        <ele>1810.88</ele>
        <time>2026-03-25T16:19:49Z</time>
      </trkpt>
      <trkpt lat="34.2357" lon="-117.16014">
        <ele>1811.1</ele>
        <time>2026-03-25T16:19:53Z</time>
      </trkpt>
      <trkpt lat="34.23572" lon="-117.16017">
        <ele>1810.88</ele>
        <time>2026-03-25T16:19:56Z</time>
      </trkpt>
      <trkpt lat="34.23574" lon="-117.16019">
        <ele>1810.88</ele>
        <time>2026-03-25T16:19:59Z</time>
      </trkpt>
      <trkpt lat="34.23578" lon="-117.1602">
        <ele>1811.1</ele>
        <time>2026-03-25T16:20:02Z</time>
      </trkpt>
      <trkpt lat="34.23581" lon="-117.16022">
        <ele>1811.0</ele>
        <time>2026-03-25T16:20:05Z</time>
      </trkpt>
      <trkpt lat="34.23583" lon="-117.16024">
        <ele>1810.78</ele>
        <time>2026-03-25T16:20:08Z</time>
      </trkpt>
      <trkpt lat="34.23586" lon="-117.16026">
        <ele>1810.96</ele>
        <time>2026-03-25T16:20:12Z</time>
      </trkpt>
      <trkpt lat="34.23589" lon="-117.16029">
        <ele>1810.96</ele>
        <time>2026-03-25T16:20:16Z</time>
      </trkpt>
      <trkpt lat="34.23583" lon="-117.16029">
        <ele>1809.7</ele>
        <time>2026-03-25T16:21:57Z</time>
      </trkpt>
      <trkpt lat="34.23578" lon="-117.16029">
        <ele>1809.08</ele>
        <time>2026-03-25T16:21:59Z</time>
      </trkpt>
      <trkpt lat="34.23572" lon="-117.16029">
        <ele>1808.16</ele>
        <time>2026-03-25T16:22:01Z</time>
      </trkpt>
      <trkpt lat="34.23568" lon="-117.16029">
        <ele>1807.29</ele>
        <time>2026-03-25T16:22:03Z</time>
      </trkpt>
      <trkpt lat="34.23564" lon="-117.16029">
        <ele>1806.44</ele>
        <time>2026-03-25T16:22:08Z</time>
      </trkpt>
      <trkpt lat="34.23561" lon="-117.16029">
        <ele>1805.83</ele>
        <time>2026-03-25T16:22:13Z</time>
      </trkpt>
      <trkpt lat="34.23558" lon="-117.16028">
        <ele>1805.47</ele>
        <time>2026-03-25T16:22:17Z</time>
      </trkpt>
      <trkpt lat="34.23556" lon="-117.16026">
        <ele>1805.48</ele>
        <time>2026-03-25T16:22:21Z</time>
      </trkpt>
      <trkpt lat="34.23554" lon="-117.16022">
        <ele>1806.08</ele>
        <time>2026-03-25T16:22:24Z</time>
      </trkpt>
      <trkpt lat="34.23553" lon="-117.16019">
        <ele>1806.62</ele>
        <time>2026-03-25T16:22:27Z</time>
      </trkpt>
      <trkpt lat="34.2355" lon="-117.16018">
        <ele>1806.51</ele>
        <time>2026-03-25T16:22:31Z</time>
      </trkpt>
      <trkpt lat="34.23547" lon="-117.16017">
        <ele>1806.4</ele>
        <time>2026-03-25T16:22:35Z</time>
      </trkpt>
      <trkpt lat="34.23544" lon="-117.16017">
        <ele>1805.83</ele>
        <time>2026-03-25T16:22:39Z</time>
      </trkpt>
      <trkpt lat="34.23541" lon="-117.16017">
        <ele>1805.18</ele>
        <time>2026-03-25T16:22:43Z</time>
      </trkpt>
      <trkpt lat="34.23538" lon="-117.16016">
        <ele>1804.75</ele>
        <time>2026-03-25T16:22:46Z</time>
      </trkpt>
      <trkpt lat="34.23535" lon="-117.16016">
        <ele>1804.32</ele>
        <time>2026-03-25T16:22:49Z</time>
      </trkpt>
      <trkpt lat="34.23532" lon="-117.16015">
        <ele>1804.22</ele>
        <time>2026-03-25T16:22:52Z</time>
      </trkpt>
      <trkpt lat="34.23529" lon="-117.16014">
        <ele>1804.11</ele>
        <time>2026-03-25T16:22:55Z</time>
      </trkpt>
      <trkpt lat="34.23526" lon="-117.16013">
        <ele>1804.08</ele>
        <time>2026-03-25T16:22:58Z</time>
      </trkpt>
      <trkpt lat="34.23523" lon="-117.16012">
        <ele>1804.04</ele>
        <time>2026-03-25T16:23:01Z</time>
      </trkpt>
      <trkpt lat="34.2352" lon="-117.1601">
        <ele>1804.07</ele>
        <time>2026-03-25T16:23:04Z</time>
      </trkpt>
      <trkpt lat="34.23517" lon="-117.16008">
        <ele>1803.97</ele>
        <time>2026-03-25T16:23:08Z</time>
      </trkpt>
      <trkpt lat="34.2352" lon="-117.16006">
        <ele>1804.57</ele>
        <time>2026-03-25T16:23:14Z</time>
      </trkpt>
      <trkpt lat="34.23522" lon="-117.16004">
        <ele>1805.16</ele>
        <time>2026-03-25T16:23:20Z</time>
      </trkpt>
      <trkpt lat="34.23519" lon="-117.16005">
        <ele>1804.54</ele>
        <time>2026-03-25T16:23:27Z</time>
      </trkpt>
      <trkpt lat="34.23517" lon="-117.16008">
        <ele>1803.97</ele>
        <time>2026-03-25T16:23:29Z</time>
      </trkpt>
      <trkpt lat="34.23514" lon="-117.16012">
        <ele>1803.36</ele>
        <time>2026-03-25T16:23:32Z</time>
      </trkpt>
      <trkpt lat="34.23513" lon="-117.16015">
        <ele>1803.15</ele>
        <time>2026-03-25T16:23:35Z</time>
      </trkpt>
      <trkpt lat="34.23513" lon="-117.16019">
        <ele>1803.01</ele>
        <time>2026-03-25T16:23:39Z</time>
      </trkpt>
      <trkpt lat="34.23514" lon="-117.16022">
        <ele>1802.99</ele>
        <time>2026-03-25T16:23:43Z</time>
      </trkpt>
      <trkpt lat="34.23517" lon="-117.16025">
        <ele>1802.53</ele>
        <time>2026-03-25T16:23:47Z</time>
      </trkpt>
      <trkpt lat="34.2352" lon="-117.16027">
        <ele>1802.08</ele>
        <time>2026-03-25T16:23:49Z</time>
      </trkpt>
      <trkpt lat="34.23522" lon="-117.16028">
        <ele>1801.98</ele>
        <time>2026-03-25T16:23:51Z</time>
      </trkpt>
      <trkpt lat="34.23524" lon="-117.16031">
        <ele>1801.59</ele>
        <time>2026-03-25T16:23:54Z</time>
      </trkpt>
      <trkpt lat="34.23524" lon="-117.16034">
        <ele>1801.2</ele>
        <time>2026-03-25T16:23:57Z</time>
      </trkpt>
      <trkpt lat="34.23524" lon="-117.16038">
        <ele>1800.75</ele>
        <time>2026-03-25T16:24:00Z</time>
      </trkpt>
      <trkpt lat="34.23524" lon="-117.16041">
        <ele>1800.56</ele>
        <time>2026-03-25T16:24:03Z</time>
      </trkpt>
      <trkpt lat="34.23524" lon="-117.16044">
        <ele>1800.37</ele>
        <time>2026-03-25T16:24:06Z</time>
      </trkpt>
      <trkpt lat="34.23524" lon="-117.16048">
        <ele>1800.19</ele>
        <time>2026-03-25T16:24:10Z</time>
      </trkpt>
      <trkpt lat="34.23524" lon="-117.16052">
        <ele>1800.11</ele>
        <time>2026-03-25T16:24:15Z</time>
      </trkpt>
      <trkpt lat="34.23524" lon="-117.16057">
        <ele>1800.04</ele>
        <time>2026-03-25T16:24:23Z</time>
      </trkpt>
      <trkpt lat="34.23523" lon="-117.16061">
        <ele>1800.58</ele>
        <time>2026-03-25T16:24:29Z</time>
      </trkpt>
      <trkpt lat="34.23523" lon="-117.16065">
        <ele>1800.57</ele>
        <time>2026-03-25T16:24:35Z</time>
      </trkpt>
      <trkpt lat="34.23522" lon="-117.16069">
        <ele>1800.95</ele>
        <time>2026-03-25T16:24:40Z</time>
      </trkpt>
      <trkpt lat="34.23522" lon="-117.16073">
        <ele>1800.79</ele>
        <time>2026-03-25T16:24:46Z</time>
      </trkpt>
      <trkpt lat="34.23521" lon="-117.16077">
        <ele>1801.16</ele>
        <time>2026-03-25T16:24:51Z</time>
      </trkpt>
      <trkpt lat="34.2352" lon="-117.1608">
        <ele>1801.5</ele>
        <time>2026-03-25T16:24:56Z</time>
      </trkpt>
      <trkpt lat="34.23518" lon="-117.16084">
        <ele>1802.26</ele>
        <time>2026-03-25T16:25:01Z</time>
      </trkpt>
      <trkpt lat="34.23517" lon="-117.16088">
        <ele>1802.48</ele>
        <time>2026-03-25T16:25:06Z</time>
      </trkpt>
      <trkpt lat="34.23515" lon="-117.16092">
        <ele>1803.34</ele>
        <time>2026-03-25T16:25:11Z</time>
      </trkpt>
      <trkpt lat="34.23514" lon="-117.16095">
        <ele>1803.54</ele>
        <time>2026-03-25T16:25:17Z</time>
      </trkpt>
      <trkpt lat="34.23513" lon="-117.16091">
        <ele>1804.75</ele>
        <time>2026-03-25T16:25:22Z</time>
      </trkpt>
      <trkpt lat="34.23511" lon="-117.16086">
        <ele>1806.58</ele>
        <time>2026-03-25T16:25:33Z</time>
      </trkpt>
      <trkpt lat="34.23508" lon="-117.16092">
        <ele>1807.63</ele>
        <time>2026-03-25T16:26:18Z</time>
      </trkpt>
      <trkpt lat="34.23506" lon="-117.16097">
        <ele>1807.46</ele>
        <time>2026-03-25T16:26:28Z</time>
      </trkpt>
      <trkpt lat="34.23504" lon="-117.16102">
        <ele>1807.22</ele>
        <time>2026-03-25T16:26:35Z</time>
      </trkpt>
      <trkpt lat="34.23501" lon="-117.16107">
        <ele>1806.9</ele>
        <time>2026-03-25T16:26:43Z</time>
      </trkpt>
      <trkpt lat="34.23499" lon="-117.16111">
        <ele>1806.47</ele>
        <time>2026-03-25T16:26:54Z</time>
      </trkpt>
      <trkpt lat="34.23495" lon="-117.16117">
        <ele>1806.25</ele>
        <time>2026-03-25T16:27:14Z</time>
      </trkpt>
      <trkpt lat="34.23492" lon="-117.16121">
        <ele>1806.25</ele>
        <time>2026-03-25T16:27:35Z</time>
      </trkpt>
      <trkpt lat="34.23487" lon="-117.16127">
        <ele>1806.06</ele>
        <time>2026-03-25T16:28:23Z</time>
      </trkpt>
      <trkpt lat="34.23484" lon="-117.16131">
        <ele>1805.85</ele>
        <time>2026-03-25T16:28:38Z</time>
      </trkpt>
      <trkpt lat="34.23479" lon="-117.16137">
        <ele>1806.0</ele>
        <time>2026-03-25T16:28:44Z</time>
      </trkpt>
      <trkpt lat="34.23474" lon="-117.16143">
        <ele>1805.64</ele>
        <time>2026-03-25T16:28:46Z</time>
      </trkpt>
      <trkpt lat="34.23471" lon="-117.16146">
        <ele>1805.96</ele>
        <time>2026-03-25T16:28:48Z</time>
      </trkpt>
      <trkpt lat="34.23467" lon="-117.16149">
        <ele>1807.2</ele>
        <time>2026-03-25T16:28:52Z</time>
      </trkpt>
      <trkpt lat="34.23467" lon="-117.16154">
        <ele>1806.9</ele>
        <time>2026-03-25T16:29:36Z</time>
      </trkpt>
      <trkpt lat="34.23468" lon="-117.1616">
        <ele>1806.37</ele>
        <time>2026-03-25T16:29:42Z</time>
      </trkpt>
      <trkpt lat="34.23468" lon="-117.16164">
        <ele>1806.37</ele>
        <time>2026-03-25T16:29:44Z</time>
      </trkpt>
      <trkpt lat="34.23469" lon="-117.16169">
        <ele>1806.04</ele>
        <time>2026-03-25T16:29:46Z</time>
      </trkpt>
      <trkpt lat="34.23469" lon="-117.16173">
        <ele>1806.04</ele>
        <time>2026-03-25T16:29:48Z</time>
      </trkpt>
      <trkpt lat="34.2347" lon="-117.16178">
        <ele>1805.89</ele>
        <time>2026-03-25T16:29:52Z</time>
      </trkpt>
      <trkpt lat="34.23471" lon="-117.16183">
        <ele>1806.06</ele>
        <time>2026-03-25T16:29:57Z</time>
      </trkpt>
      <trkpt lat="34.23472" lon="-117.16188">
        <ele>1806.06</ele>
        <time>2026-03-25T16:30:02Z</time>
      </trkpt>
      <trkpt lat="34.23473" lon="-117.16193">
        <ele>1805.73</ele>
        <time>2026-03-25T16:30:07Z</time>
      </trkpt>
      <trkpt lat="34.23473" lon="-117.16198">
        <ele>1806.13</ele>
        <time>2026-03-25T16:30:13Z</time>
      </trkpt>
      <trkpt lat="34.23472" lon="-117.16203">
        <ele>1806.97</ele>
        <time>2026-03-25T16:30:18Z</time>
      </trkpt>
      <trkpt lat="34.23471" lon="-117.16208">
        <ele>1807.26</ele>
        <time>2026-03-25T16:30:24Z</time>
      </trkpt>
      <trkpt lat="34.23466" lon="-117.16211">
        <ele>1808.34</ele>
        <time>2026-03-25T16:30:28Z</time>
      </trkpt>
      <trkpt lat="34.23462" lon="-117.16212">
        <ele>1809.1</ele>
        <time>2026-03-25T16:30:30Z</time>
      </trkpt>
      <trkpt lat="34.23457" lon="-117.16213">
        <ele>1809.64</ele>
        <time>2026-03-25T16:30:33Z</time>
      </trkpt>
      <trkpt lat="34.23454" lon="-117.16212">
        <ele>1809.97</ele>
        <time>2026-03-25T16:30:37Z</time>
      </trkpt>
      <trkpt lat="34.23452" lon="-117.16206">
        <ele>1810.32</ele>
        <time>2026-03-25T16:30:40Z</time>
      </trkpt>
      <trkpt lat="34.23451" lon="-117.16202">
        <ele>1810.58</ele>
        <time>2026-03-25T16:30:44Z</time>
      </trkpt>
      <trkpt lat="34.23446" lon="-117.16202">
        <ele>1811.66</ele>
        <time>2026-03-25T16:30:55Z</time>
      </trkpt>
      <trkpt lat="34.23441" lon="-117.16202">
        <ele>1812.44</ele>
        <time>2026-03-25T16:31:01Z</time>
      </trkpt>
      <trkpt lat="34.23437" lon="-117.16202">
        <ele>1812.95</ele>
        <time>2026-03-25T16:31:10Z</time>
      </trkpt>
      <trkpt lat="34.2343" lon="-117.16205">
        <ele>1814.04</ele>
        <time>2026-03-25T16:31:44Z</time>
      </trkpt>
      <trkpt lat="34.23425" lon="-117.16209">
        <ele>1814.53</ele>
        <time>2026-03-25T16:31:54Z</time>
      </trkpt>
      <trkpt lat="34.23421" lon="-117.16213">
        <ele>1814.53</ele>
        <time>2026-03-25T16:32:01Z</time>
      </trkpt>
      <trkpt lat="34.23417" lon="-117.16217">
        <ele>1814.53</ele>
        <time>2026-03-25T16:32:07Z</time>
      </trkpt>
      <trkpt lat="34.23415" lon="-117.16225">
        <ele>1813.88</ele>
        <time>2026-03-25T16:32:10Z</time>
      </trkpt>
      <trkpt lat="34.23414" lon="-117.1623">
        <ele>1813.45</ele>
        <time>2026-03-25T16:32:12Z</time>
      </trkpt>
      <trkpt lat="34.23412" lon="-117.16234">
        <ele>1812.96</ele>
        <time>2026-03-25T16:32:15Z</time>
      </trkpt>
      <trkpt lat="34.23409" lon="-117.16237">
        <ele>1812.64</ele>
        <time>2026-03-25T16:32:20Z</time>
      </trkpt>
      <trkpt lat="34.23406" lon="-117.1624">
        <ele>1812.45</ele>
        <time>2026-03-25T16:32:25Z</time>
      </trkpt>
      <trkpt lat="34.23403" lon="-117.16242">
        <ele>1812.75</ele>
        <time>2026-03-25T16:32:30Z</time>
      </trkpt>
      <trkpt lat="34.234" lon="-117.16245">
        <ele>1812.77</ele>
        <time>2026-03-25T16:32:35Z</time>
      </trkpt>
      <trkpt lat="34.23396" lon="-117.16247">
        <ele>1813.04</ele>
        <time>2026-03-25T16:32:41Z</time>
      </trkpt>
      <trkpt lat="34.23393" lon="-117.16247">
        <ele>1813.58</ele>
        <time>2026-03-25T16:32:48Z</time>
      </trkpt>
      <trkpt lat="34.23389" lon="-117.16248">
        <ele>1814.19</ele>
        <time>2026-03-25T16:32:56Z</time>
      </trkpt>
      <trkpt lat="34.23385" lon="-117.1625">
        <ele>1814.84</ele>
        <time>2026-03-25T16:33:03Z</time>
      </trkpt>
      <trkpt lat="34.23381" lon="-117.16251">
        <ele>1815.49</ele>
        <time>2026-03-25T16:33:09Z</time>
      </trkpt>
      <trkpt lat="34.23377" lon="-117.16251">
        <ele>1816.07</ele>
        <time>2026-03-25T16:33:12Z</time>
      </trkpt>
      <trkpt lat="34.23373" lon="-117.16251">
        <ele>1816.5</ele>
        <time>2026-03-25T16:33:14Z</time>
      </trkpt>
      <trkpt lat="34.23368" lon="-117.16252">
        <ele>1816.82</ele>
        <time>2026-03-25T16:33:17Z</time>
      </trkpt>
      <trkpt lat="34.23364" lon="-117.16252">
        <ele>1817.26</ele>
        <time>2026-03-25T16:33:20Z</time>
      </trkpt>
      <trkpt lat="34.2336" lon="-117.16252">
        <ele>1817.57</ele>
        <time>2026-03-25T16:33:24Z</time>
      </trkpt>
      <trkpt lat="34.23357" lon="-117.16252">
        <ele>1817.57</ele>
        <time>2026-03-25T16:33:27Z</time>
      </trkpt>
      <trkpt lat="34.23353" lon="-117.16251">
        <ele>1817.78</ele>
        <time>2026-03-25T16:33:31Z</time>
      </trkpt>
      <trkpt lat="34.23351" lon="-117.16246">
        <ele>1817.95</ele>
        <time>2026-03-25T16:33:33Z</time>
      </trkpt>
      <trkpt lat="34.2335" lon="-117.1624">
        <ele>1818.06</ele>
        <time>2026-03-25T16:33:35Z</time>
      </trkpt>
      <trkpt lat="34.23348" lon="-117.16237">
        <ele>1818.24</ele>
        <time>2026-03-25T16:33:37Z</time>
      </trkpt>
      <trkpt lat="34.23347" lon="-117.16234">
        <ele>1818.35</ele>
        <time>2026-03-25T16:33:40Z</time>
      </trkpt>
      <trkpt lat="34.23346" lon="-117.1623">
        <ele>1818.37</ele>
        <time>2026-03-25T16:33:45Z</time>
      </trkpt>
      <trkpt lat="34.23346" lon="-117.16226">
        <ele>1818.37</ele>
        <time>2026-03-25T16:33:52Z</time>
      </trkpt>
      <trkpt lat="34.23345" lon="-117.16223">
        <ele>1818.26</ele>
        <time>2026-03-25T16:33:57Z</time>
      </trkpt>
      <trkpt lat="34.23345" lon="-117.16219">
        <ele>1818.26</ele>
        <time>2026-03-25T16:34:01Z</time>
      </trkpt>
      <trkpt lat="34.23345" lon="-117.16215">
        <ele>1818.26</ele>
        <time>2026-03-25T16:34:05Z</time>
      </trkpt>
      <trkpt lat="34.23345" lon="-117.16212">
        <ele>1818.26</ele>
        <time>2026-03-25T16:34:10Z</time>
      </trkpt>
      <trkpt lat="34.23346" lon="-117.16208">
        <ele>1818.37</ele>
        <time>2026-03-25T16:34:14Z</time>
      </trkpt>
      <trkpt lat="34.23347" lon="-117.16205">
        <ele>1818.48</ele>
        <time>2026-03-25T16:34:18Z</time>
      </trkpt>
      <trkpt lat="34.23348" lon="-117.16201">
        <ele>1818.75</ele>
        <time>2026-03-25T16:34:22Z</time>
      </trkpt>
      <trkpt lat="34.2335" lon="-117.16198">
        <ele>1819.29</ele>
        <time>2026-03-25T16:34:26Z</time>
      </trkpt>
      <trkpt lat="34.23352" lon="-117.16195">
        <ele>1819.94</ele>
        <time>2026-03-25T16:34:30Z</time>
      </trkpt>
      <trkpt lat="34.23354" lon="-117.16196">
        <ele>1819.87</ele>
        <time>2026-03-25T16:34:36Z</time>
      </trkpt>
      <trkpt lat="34.23357" lon="-117.16194">
        <ele>1820.03</ele>
        <time>2026-03-25T16:34:39Z</time>
      </trkpt>
      <trkpt lat="34.2336" lon="-117.16192">
        <ele>1820.23</ele>
        <time>2026-03-25T16:34:45Z</time>
      </trkpt>
      <trkpt lat="34.2336" lon="-117.16186">
        <ele>1820.8</ele>
        <time>2026-03-25T16:35:21Z</time>
      </trkpt>
      <trkpt lat="34.23362" lon="-117.16181">
        <ele>1821.0</ele>
        <time>2026-03-25T16:35:28Z</time>
      </trkpt>
      <trkpt lat="34.23365" lon="-117.16176">
        <ele>1821.0</ele>
        <time>2026-03-25T16:35:37Z</time>
      </trkpt>
      <trkpt lat="34.23368" lon="-117.16171">
        <ele>1821.53</ele>
        <time>2026-03-25T16:35:53Z</time>
      </trkpt>
      <trkpt lat="34.2337" lon="-117.16166">
        <ele>1822.0</ele>
        <time>2026-03-25T16:36:03Z</time>
      </trkpt>
      <trkpt lat="34.23374" lon="-117.16161">
        <ele>1821.85</ele>
        <time>2026-03-25T16:36:15Z</time>
      </trkpt>
      <trkpt lat="34.23376" lon="-117.16156">
        <ele>1822.06</ele>
        <time>2026-03-25T16:36:33Z</time>
      </trkpt>
      <trkpt lat="34.23377" lon="-117.16151">
        <ele>1822.2</ele>
        <time>2026-03-25T16:36:44Z</time>
      </trkpt>
      <trkpt lat="34.23379" lon="-117.16144">
        <ele>1822.49</ele>
        <time>2026-03-25T16:37:04Z</time>
      </trkpt>
      <trkpt lat="34.23381" lon="-117.16135">
        <ele>1822.85</ele>
        <time>2026-03-25T16:38:28Z</time>
      </trkpt>
      <trkpt lat="34.23382" lon="-117.1613">
        <ele>1822.74</ele>
        <time>2026-03-25T16:38:47Z</time>
      </trkpt>
      <trkpt lat="34.23382" lon="-117.16124">
        <ele>1823.35</ele>
        <time>2026-03-25T16:38:50Z</time>
      </trkpt>
      <trkpt lat="34.23382" lon="-117.16117">
        <ele>1823.74</ele>
        <time>2026-03-25T16:38:52Z</time>
      </trkpt>
      <trkpt lat="34.23383" lon="-117.1611">
        <ele>1823.76</ele>
        <time>2026-03-25T16:38:55Z</time>
      </trkpt>
      <trkpt lat="34.23383" lon="-117.16106">
        <ele>1824.19</ele>
        <time>2026-03-25T16:38:58Z</time>
      </trkpt>
      <trkpt lat="34.23384" lon="-117.16101">
        <ele>1824.53</ele>
        <time>2026-03-25T16:39:07Z</time>
      </trkpt>
      <trkpt lat="34.23389" lon="-117.16099">
        <ele>1823.99</ele>
        <time>2026-03-25T16:39:19Z</time>
      </trkpt>
      <trkpt lat="34.23393" lon="-117.16099">
        <ele>1823.69</ele>
        <time>2026-03-25T16:39:30Z</time>
      </trkpt>
      <trkpt lat="34.23397" lon="-117.16096">
        <ele>1823.68</ele>
        <time>2026-03-25T16:39:37Z</time>
      </trkpt>
      <trkpt lat="34.234" lon="-117.16093">
        <ele>1823.76</ele>
        <time>2026-03-25T16:39:43Z</time>
      </trkpt>
      <trkpt lat="34.23404" lon="-117.16091">
        <ele>1823.48</ele>
        <time>2026-03-25T16:39:48Z</time>
      </trkpt>
      <trkpt lat="34.23409" lon="-117.1609">
        <ele>1823.11</ele>
        <time>2026-03-25T16:39:54Z</time>
      </trkpt>
      <trkpt lat="34.23411" lon="-117.16087">
        <ele>1823.22</ele>
        <time>2026-03-25T16:40:02Z</time>
      </trkpt>
      <trkpt lat="34.23413" lon="-117.16082">
        <ele>1823.4</ele>
        <time>2026-03-25T16:40:09Z</time>
      </trkpt>
      <trkpt lat="34.23409" lon="-117.1608">
        <ele>1823.83</ele>
        <time>2026-03-25T16:40:13Z</time>
      </trkpt>
      <trkpt lat="34.23405" lon="-117.16077">
        <ele>1824.18</ele>
        <time>2026-03-25T16:40:18Z</time>
      </trkpt>
      <trkpt lat="34.23402" lon="-117.16074">
        <ele>1824.58</ele>
        <time>2026-03-25T16:40:24Z</time>
      </trkpt>
      <trkpt lat="34.234" lon="-117.16071">
        <ele>1824.8</ele>
        <time>2026-03-25T16:40:33Z</time>
      </trkpt>
      <trkpt lat="34.23396" lon="-117.16062">
        <ele>1825.47</ele>
        <time>2026-03-25T16:41:36Z</time>
      </trkpt>
      <trkpt lat="34.23391" lon="-117.16061">
        <ele>1825.87</ele>
        <time>2026-03-25T16:41:47Z</time>
      </trkpt>
      <trkpt lat="34.23387" lon="-117.16059">
        <ele>1826.13</ele>
        <time>2026-03-25T16:41:55Z</time>
      </trkpt>
      <trkpt lat="34.2338" lon="-117.16061">
        <ele>1826.4</ele>
        <time>2026-03-25T16:42:07Z</time>
      </trkpt>
    </trkseg>
  </trk>
</gpx>
